<?xml version="1.0" encoding="UTF-8"?>
<gpx xmlns="http://www.topografix.com/GPX/1/1" xmlns:xsi="http://www.w3.org/2001/XMLSchema-instance" version="1.1" creator="Trace de Trail" xsi:schemaLocation="http://www.topografix.com/GPX/1/1 http://www.topografix.com/GPX/1/1/gpx.xsd">
  <metadata>
    <name>HOKA LES TEMPLIERS 2025 - Les Troubadours</name>
    <desc>Parcours créé sur Trace de Trail</desc>
    <link href="https://tracedetrail.fr/fr/trace/278601">
      <text>Cartographie du parcours</text>
    </link>
    <time>2026-08-21T15:17:17+00:00</time>
  </metadata>
  <trk>
    <name>HOKA LES TEMPLIERS 2025 - Les Troubadours sur TraceDeTrail.fr</name>
    <src>Trace de Trail</src>
    <trkseg>
      <trkpt lat="44.11344" lon="3.087">
        <ele>360</ele>
        <time>2026-08-21T15:17:17+00:00</time>
      </trkpt>
      <trkpt lat="44.11378" lon="3.08691">
        <ele>360</ele>
        <time>2026-08-21T15:17:20+00:00</time>
      </trkpt>
      <trkpt lat="44.11381" lon="3.08663">
        <ele>360</ele>
        <time>2026-08-21T15:17:23+00:00</time>
      </trkpt>
      <trkpt lat="44.11407" lon="3.08668">
        <ele>360</ele>
        <time>2026-08-21T15:17:26+00:00</time>
      </trkpt>
      <trkpt lat="44.11438" lon="3.08675">
        <ele>360</ele>
        <time>2026-08-21T15:17:29+00:00</time>
      </trkpt>
      <trkpt lat="44.11473" lon="3.0869">
        <ele>360</ele>
        <time>2026-08-21T15:17:32+00:00</time>
      </trkpt>
      <trkpt lat="44.11504" lon="3.08707">
        <ele>360</ele>
        <time>2026-08-21T15:17:35+00:00</time>
      </trkpt>
      <trkpt lat="44.11534" lon="3.08725">
        <ele>360</ele>
        <time>2026-08-21T15:17:38+00:00</time>
      </trkpt>
      <trkpt lat="44.11571" lon="3.08746">
        <ele>360</ele>
        <time>2026-08-21T15:17:41+00:00</time>
      </trkpt>
      <trkpt lat="44.11598" lon="3.08763">
        <ele>360</ele>
        <time>2026-08-21T15:17:44+00:00</time>
      </trkpt>
      <trkpt lat="44.11621" lon="3.08779">
        <ele>360</ele>
        <time>2026-08-21T15:17:47+00:00</time>
      </trkpt>
      <trkpt lat="44.11649" lon="3.08795">
        <ele>360</ele>
        <time>2026-08-21T15:17:50+00:00</time>
      </trkpt>
      <trkpt lat="44.11688" lon="3.08819">
        <ele>360</ele>
        <time>2026-08-21T15:17:53+00:00</time>
      </trkpt>
      <trkpt lat="44.11711" lon="3.08836">
        <ele>360</ele>
        <time>2026-08-21T15:17:56+00:00</time>
      </trkpt>
      <trkpt lat="44.11747" lon="3.08867">
        <ele>360</ele>
        <time>2026-08-21T15:17:59+00:00</time>
      </trkpt>
      <trkpt lat="44.11768" lon="3.08893">
        <ele>360</ele>
        <time>2026-08-21T15:18:02+00:00</time>
      </trkpt>
      <trkpt lat="44.118" lon="3.08932">
        <ele>360</ele>
        <time>2026-08-21T15:18:05+00:00</time>
      </trkpt>
      <trkpt lat="44.11827" lon="3.08969">
        <ele>360</ele>
        <time>2026-08-21T15:18:08+00:00</time>
      </trkpt>
      <trkpt lat="44.11853" lon="3.09007">
        <ele>360</ele>
        <time>2026-08-21T15:18:11+00:00</time>
      </trkpt>
      <trkpt lat="44.1188" lon="3.09044">
        <ele>360</ele>
        <time>2026-08-21T15:18:14+00:00</time>
      </trkpt>
      <trkpt lat="44.11924" lon="3.09105">
        <ele>361</ele>
        <time>2026-08-21T15:18:17+00:00</time>
      </trkpt>
      <trkpt lat="44.11947" lon="3.0914">
        <ele>361</ele>
        <time>2026-08-21T15:18:20+00:00</time>
      </trkpt>
      <trkpt lat="44.11965" lon="3.09171">
        <ele>361</ele>
        <time>2026-08-21T15:18:23+00:00</time>
      </trkpt>
      <trkpt lat="44.11993" lon="3.09217">
        <ele>362</ele>
        <time>2026-08-21T15:18:26+00:00</time>
      </trkpt>
      <trkpt lat="44.12015" lon="3.09257">
        <ele>364</ele>
        <time>2026-08-21T15:18:29+00:00</time>
      </trkpt>
      <trkpt lat="44.12045" lon="3.09302">
        <ele>365</ele>
        <time>2026-08-21T15:18:32+00:00</time>
      </trkpt>
      <trkpt lat="44.12059" lon="3.09321">
        <ele>364</ele>
        <time>2026-08-21T15:18:35+00:00</time>
      </trkpt>
      <trkpt lat="44.1208" lon="3.09358">
        <ele>364</ele>
        <time>2026-08-21T15:18:38+00:00</time>
      </trkpt>
      <trkpt lat="44.12102" lon="3.09396">
        <ele>364</ele>
        <time>2026-08-21T15:18:41+00:00</time>
      </trkpt>
      <trkpt lat="44.12133" lon="3.0945">
        <ele>364</ele>
        <time>2026-08-21T15:18:44+00:00</time>
      </trkpt>
      <trkpt lat="44.12149" lon="3.09475">
        <ele>364</ele>
        <time>2026-08-21T15:18:47+00:00</time>
      </trkpt>
      <trkpt lat="44.12165" lon="3.09501">
        <ele>364</ele>
        <time>2026-08-21T15:18:50+00:00</time>
      </trkpt>
      <trkpt lat="44.12185" lon="3.09525">
        <ele>364</ele>
        <time>2026-08-21T15:18:53+00:00</time>
      </trkpt>
      <trkpt lat="44.12208" lon="3.09553">
        <ele>364</ele>
        <time>2026-08-21T15:18:56+00:00</time>
      </trkpt>
      <trkpt lat="44.12231" lon="3.09584">
        <ele>364</ele>
        <time>2026-08-21T15:18:59+00:00</time>
      </trkpt>
      <trkpt lat="44.12276" lon="3.09644">
        <ele>365</ele>
        <time>2026-08-21T15:19:02+00:00</time>
      </trkpt>
      <trkpt lat="44.12295" lon="3.09672">
        <ele>365</ele>
        <time>2026-08-21T15:19:05+00:00</time>
      </trkpt>
      <trkpt lat="44.12322" lon="3.0971">
        <ele>365</ele>
        <time>2026-08-21T15:19:08+00:00</time>
      </trkpt>
      <trkpt lat="44.12352" lon="3.09747">
        <ele>365</ele>
        <time>2026-08-21T15:19:11+00:00</time>
      </trkpt>
      <trkpt lat="44.12364" lon="3.09786">
        <ele>366</ele>
        <time>2026-08-21T15:19:14+00:00</time>
      </trkpt>
      <trkpt lat="44.12386" lon="3.09853">
        <ele>366</ele>
        <time>2026-08-21T15:19:17+00:00</time>
      </trkpt>
      <trkpt lat="44.12396" lon="3.0988">
        <ele>366</ele>
        <time>2026-08-21T15:19:20+00:00</time>
      </trkpt>
      <trkpt lat="44.12402" lon="3.09904">
        <ele>366</ele>
        <time>2026-08-21T15:19:23+00:00</time>
      </trkpt>
      <trkpt lat="44.12411" lon="3.09928">
        <ele>366</ele>
        <time>2026-08-21T15:19:26+00:00</time>
      </trkpt>
      <trkpt lat="44.12424" lon="3.0996">
        <ele>366</ele>
        <time>2026-08-21T15:19:29+00:00</time>
      </trkpt>
      <trkpt lat="44.12451" lon="3.10008">
        <ele>366</ele>
        <time>2026-08-21T15:19:32+00:00</time>
      </trkpt>
      <trkpt lat="44.12483" lon="3.10029">
        <ele>366</ele>
        <time>2026-08-21T15:19:35+00:00</time>
      </trkpt>
      <trkpt lat="44.12523" lon="3.10048">
        <ele>365</ele>
        <time>2026-08-21T15:19:38+00:00</time>
      </trkpt>
      <trkpt lat="44.1255" lon="3.10055">
        <ele>365</ele>
        <time>2026-08-21T15:19:41+00:00</time>
      </trkpt>
      <trkpt lat="44.12584" lon="3.10063">
        <ele>365</ele>
        <time>2026-08-21T15:19:44+00:00</time>
      </trkpt>
      <trkpt lat="44.1261" lon="3.10063">
        <ele>365</ele>
        <time>2026-08-21T15:19:47+00:00</time>
      </trkpt>
      <trkpt lat="44.12642" lon="3.10064">
        <ele>365</ele>
        <time>2026-08-21T15:19:50+00:00</time>
      </trkpt>
      <trkpt lat="44.12668" lon="3.10062">
        <ele>364</ele>
        <time>2026-08-21T15:19:53+00:00</time>
      </trkpt>
      <trkpt lat="44.127" lon="3.1006">
        <ele>365</ele>
        <time>2026-08-21T15:19:56+00:00</time>
      </trkpt>
      <trkpt lat="44.12737" lon="3.10062">
        <ele>365</ele>
        <time>2026-08-21T15:19:59+00:00</time>
      </trkpt>
      <trkpt lat="44.1276" lon="3.10059">
        <ele>365</ele>
        <time>2026-08-21T15:20:02+00:00</time>
      </trkpt>
      <trkpt lat="44.12771" lon="3.10056">
        <ele>367</ele>
        <time>2026-08-21T15:20:05+00:00</time>
      </trkpt>
      <trkpt lat="44.12778" lon="3.10063">
        <ele>367</ele>
        <time>2026-08-21T15:20:08+00:00</time>
      </trkpt>
      <trkpt lat="44.12798" lon="3.10058">
        <ele>367</ele>
        <time>2026-08-21T15:20:11+00:00</time>
      </trkpt>
      <trkpt lat="44.12829" lon="3.10051">
        <ele>372</ele>
        <time>2026-08-21T15:20:14+00:00</time>
      </trkpt>
      <trkpt lat="44.12868" lon="3.10042">
        <ele>376</ele>
        <time>2026-08-21T15:20:17+00:00</time>
      </trkpt>
      <trkpt lat="44.12896" lon="3.10033">
        <ele>376</ele>
        <time>2026-08-21T15:20:20+00:00</time>
      </trkpt>
      <trkpt lat="44.12926" lon="3.10022">
        <ele>377</ele>
        <time>2026-08-21T15:20:23+00:00</time>
      </trkpt>
      <trkpt lat="44.12936" lon="3.10024">
        <ele>380</ele>
        <time>2026-08-21T15:20:26+00:00</time>
      </trkpt>
      <trkpt lat="44.12944" lon="3.10033">
        <ele>381</ele>
        <time>2026-08-21T15:20:29+00:00</time>
      </trkpt>
      <trkpt lat="44.12948" lon="3.10048">
        <ele>382</ele>
        <time>2026-08-21T15:20:32+00:00</time>
      </trkpt>
      <trkpt lat="44.12947" lon="3.10058">
        <ele>382</ele>
        <time>2026-08-21T15:20:35+00:00</time>
      </trkpt>
      <trkpt lat="44.12945" lon="3.10067">
        <ele>384</ele>
        <time>2026-08-21T15:20:38+00:00</time>
      </trkpt>
      <trkpt lat="44.12939" lon="3.10072">
        <ele>385</ele>
        <time>2026-08-21T15:20:41+00:00</time>
      </trkpt>
      <trkpt lat="44.12921" lon="3.10083">
        <ele>387</ele>
        <time>2026-08-21T15:20:44+00:00</time>
      </trkpt>
      <trkpt lat="44.12904" lon="3.10095">
        <ele>391</ele>
        <time>2026-08-21T15:20:47+00:00</time>
      </trkpt>
      <trkpt lat="44.12892" lon="3.10102">
        <ele>393</ele>
        <time>2026-08-21T15:20:50+00:00</time>
      </trkpt>
      <trkpt lat="44.12889" lon="3.10109">
        <ele>391</ele>
        <time>2026-08-21T15:20:53+00:00</time>
      </trkpt>
      <trkpt lat="44.12889" lon="3.10116">
        <ele>393</ele>
        <time>2026-08-21T15:20:56+00:00</time>
      </trkpt>
      <trkpt lat="44.12893" lon="3.10125">
        <ele>395</ele>
        <time>2026-08-21T15:20:59+00:00</time>
      </trkpt>
      <trkpt lat="44.12902" lon="3.10143">
        <ele>396</ele>
        <time>2026-08-21T15:21:02+00:00</time>
      </trkpt>
      <trkpt lat="44.12915" lon="3.10166">
        <ele>398</ele>
        <time>2026-08-21T15:21:05+00:00</time>
      </trkpt>
      <trkpt lat="44.12926" lon="3.10193">
        <ele>400</ele>
        <time>2026-08-21T15:21:08+00:00</time>
      </trkpt>
      <trkpt lat="44.12939" lon="3.10211">
        <ele>402</ele>
        <time>2026-08-21T15:21:11+00:00</time>
      </trkpt>
      <trkpt lat="44.12947" lon="3.10223">
        <ele>402</ele>
        <time>2026-08-21T15:21:14+00:00</time>
      </trkpt>
      <trkpt lat="44.12954" lon="3.1023">
        <ele>403</ele>
        <time>2026-08-21T15:21:17+00:00</time>
      </trkpt>
      <trkpt lat="44.12962" lon="3.10234">
        <ele>404</ele>
        <time>2026-08-21T15:21:20+00:00</time>
      </trkpt>
      <trkpt lat="44.12964" lon="3.10238">
        <ele>404</ele>
        <time>2026-08-21T15:21:23+00:00</time>
      </trkpt>
      <trkpt lat="44.12965" lon="3.10242">
        <ele>405</ele>
        <time>2026-08-21T15:21:26+00:00</time>
      </trkpt>
      <trkpt lat="44.12961" lon="3.10248">
        <ele>405</ele>
        <time>2026-08-21T15:21:29+00:00</time>
      </trkpt>
      <trkpt lat="44.12949" lon="3.10248">
        <ele>408</ele>
        <time>2026-08-21T15:21:32+00:00</time>
      </trkpt>
      <trkpt lat="44.12941" lon="3.10243">
        <ele>408</ele>
        <time>2026-08-21T15:21:35+00:00</time>
      </trkpt>
      <trkpt lat="44.12918" lon="3.1024">
        <ele>412</ele>
        <time>2026-08-21T15:21:38+00:00</time>
      </trkpt>
      <trkpt lat="44.12893" lon="3.10244">
        <ele>413</ele>
        <time>2026-08-21T15:21:41+00:00</time>
      </trkpt>
      <trkpt lat="44.12874" lon="3.10251">
        <ele>416</ele>
        <time>2026-08-21T15:21:44+00:00</time>
      </trkpt>
      <trkpt lat="44.1286" lon="3.10266">
        <ele>416</ele>
        <time>2026-08-21T15:21:47+00:00</time>
      </trkpt>
      <trkpt lat="44.12852" lon="3.10275">
        <ele>420</ele>
        <time>2026-08-21T15:21:50+00:00</time>
      </trkpt>
      <trkpt lat="44.12851" lon="3.10285">
        <ele>422</ele>
        <time>2026-08-21T15:21:53+00:00</time>
      </trkpt>
      <trkpt lat="44.12847" lon="3.10294">
        <ele>422</ele>
        <time>2026-08-21T15:21:56+00:00</time>
      </trkpt>
      <trkpt lat="44.12845" lon="3.10298">
        <ele>422</ele>
        <time>2026-08-21T15:21:59+00:00</time>
      </trkpt>
      <trkpt lat="44.12846" lon="3.10301">
        <ele>424</ele>
        <time>2026-08-21T15:22:02+00:00</time>
      </trkpt>
      <trkpt lat="44.12851" lon="3.10296">
        <ele>423</ele>
        <time>2026-08-21T15:22:05+00:00</time>
      </trkpt>
      <trkpt lat="44.12861" lon="3.10291">
        <ele>425</ele>
        <time>2026-08-21T15:22:08+00:00</time>
      </trkpt>
      <trkpt lat="44.12873" lon="3.10285">
        <ele>426</ele>
        <time>2026-08-21T15:22:11+00:00</time>
      </trkpt>
      <trkpt lat="44.12886" lon="3.10282">
        <ele>426</ele>
        <time>2026-08-21T15:22:14+00:00</time>
      </trkpt>
      <trkpt lat="44.12901" lon="3.10281">
        <ele>428</ele>
        <time>2026-08-21T15:22:17+00:00</time>
      </trkpt>
      <trkpt lat="44.12916" lon="3.10285">
        <ele>428</ele>
        <time>2026-08-21T15:22:20+00:00</time>
      </trkpt>
      <trkpt lat="44.12926" lon="3.1029">
        <ele>430</ele>
        <time>2026-08-21T15:22:23+00:00</time>
      </trkpt>
      <trkpt lat="44.12937" lon="3.10298">
        <ele>428</ele>
        <time>2026-08-21T15:22:26+00:00</time>
      </trkpt>
      <trkpt lat="44.12945" lon="3.10304">
        <ele>429</ele>
        <time>2026-08-21T15:22:29+00:00</time>
      </trkpt>
      <trkpt lat="44.12957" lon="3.10309">
        <ele>427</ele>
        <time>2026-08-21T15:22:32+00:00</time>
      </trkpt>
      <trkpt lat="44.12968" lon="3.10312">
        <ele>427</ele>
        <time>2026-08-21T15:22:35+00:00</time>
      </trkpt>
      <trkpt lat="44.12981" lon="3.10317">
        <ele>427</ele>
        <time>2026-08-21T15:22:38+00:00</time>
      </trkpt>
      <trkpt lat="44.12993" lon="3.10321">
        <ele>429</ele>
        <time>2026-08-21T15:22:41+00:00</time>
      </trkpt>
      <trkpt lat="44.13003" lon="3.10325">
        <ele>430</ele>
        <time>2026-08-21T15:22:44+00:00</time>
      </trkpt>
      <trkpt lat="44.13012" lon="3.10328">
        <ele>430</ele>
        <time>2026-08-21T15:22:47+00:00</time>
      </trkpt>
      <trkpt lat="44.13035" lon="3.10335">
        <ele>433</ele>
        <time>2026-08-21T15:22:50+00:00</time>
      </trkpt>
      <trkpt lat="44.13058" lon="3.10342">
        <ele>434</ele>
        <time>2026-08-21T15:22:53+00:00</time>
      </trkpt>
      <trkpt lat="44.13074" lon="3.10345">
        <ele>434</ele>
        <time>2026-08-21T15:22:56+00:00</time>
      </trkpt>
      <trkpt lat="44.13093" lon="3.1035">
        <ele>435</ele>
        <time>2026-08-21T15:22:59+00:00</time>
      </trkpt>
      <trkpt lat="44.13114" lon="3.10353">
        <ele>434</ele>
        <time>2026-08-21T15:23:02+00:00</time>
      </trkpt>
      <trkpt lat="44.13132" lon="3.10356">
        <ele>434</ele>
        <time>2026-08-21T15:23:05+00:00</time>
      </trkpt>
      <trkpt lat="44.13148" lon="3.10357">
        <ele>433</ele>
        <time>2026-08-21T15:23:08+00:00</time>
      </trkpt>
      <trkpt lat="44.1317" lon="3.1036">
        <ele>433</ele>
        <time>2026-08-21T15:23:11+00:00</time>
      </trkpt>
      <trkpt lat="44.13193" lon="3.10357">
        <ele>433</ele>
        <time>2026-08-21T15:23:14+00:00</time>
      </trkpt>
      <trkpt lat="44.13207" lon="3.10358">
        <ele>432</ele>
        <time>2026-08-21T15:23:17+00:00</time>
      </trkpt>
      <trkpt lat="44.13214" lon="3.10362">
        <ele>435</ele>
        <time>2026-08-21T15:23:20+00:00</time>
      </trkpt>
      <trkpt lat="44.13237" lon="3.10376">
        <ele>437</ele>
        <time>2026-08-21T15:23:23+00:00</time>
      </trkpt>
      <trkpt lat="44.13255" lon="3.10384">
        <ele>440</ele>
        <time>2026-08-21T15:23:26+00:00</time>
      </trkpt>
      <trkpt lat="44.1327" lon="3.10387">
        <ele>440</ele>
        <time>2026-08-21T15:23:29+00:00</time>
      </trkpt>
      <trkpt lat="44.13292" lon="3.10388">
        <ele>445</ele>
        <time>2026-08-21T15:23:32+00:00</time>
      </trkpt>
      <trkpt lat="44.13313" lon="3.10388">
        <ele>449</ele>
        <time>2026-08-21T15:23:35+00:00</time>
      </trkpt>
      <trkpt lat="44.13339" lon="3.1039">
        <ele>452</ele>
        <time>2026-08-21T15:23:38+00:00</time>
      </trkpt>
      <trkpt lat="44.13357" lon="3.10398">
        <ele>461</ele>
        <time>2026-08-21T15:23:41+00:00</time>
      </trkpt>
      <trkpt lat="44.13357" lon="3.10403">
        <ele>464</ele>
        <time>2026-08-21T15:23:44+00:00</time>
      </trkpt>
      <trkpt lat="44.13354" lon="3.10405">
        <ele>464</ele>
        <time>2026-08-21T15:23:47+00:00</time>
      </trkpt>
      <trkpt lat="44.13349" lon="3.10406">
        <ele>463</ele>
        <time>2026-08-21T15:23:50+00:00</time>
      </trkpt>
      <trkpt lat="44.13349" lon="3.1041">
        <ele>466</ele>
        <time>2026-08-21T15:23:53+00:00</time>
      </trkpt>
      <trkpt lat="44.13353" lon="3.10413">
        <ele>467</ele>
        <time>2026-08-21T15:23:56+00:00</time>
      </trkpt>
      <trkpt lat="44.13358" lon="3.10414">
        <ele>467</ele>
        <time>2026-08-21T15:23:59+00:00</time>
      </trkpt>
      <trkpt lat="44.13367" lon="3.10414">
        <ele>468</ele>
        <time>2026-08-21T15:24:02+00:00</time>
      </trkpt>
      <trkpt lat="44.13374" lon="3.10414">
        <ele>471</ele>
        <time>2026-08-21T15:24:05+00:00</time>
      </trkpt>
      <trkpt lat="44.13379" lon="3.10419">
        <ele>471</ele>
        <time>2026-08-21T15:24:08+00:00</time>
      </trkpt>
      <trkpt lat="44.13382" lon="3.10425">
        <ele>476</ele>
        <time>2026-08-21T15:24:11+00:00</time>
      </trkpt>
      <trkpt lat="44.13386" lon="3.10437">
        <ele>477</ele>
        <time>2026-08-21T15:24:14+00:00</time>
      </trkpt>
      <trkpt lat="44.13391" lon="3.10453">
        <ele>474</ele>
        <time>2026-08-21T15:24:17+00:00</time>
      </trkpt>
      <trkpt lat="44.13398" lon="3.10464">
        <ele>479</ele>
        <time>2026-08-21T15:24:20+00:00</time>
      </trkpt>
      <trkpt lat="44.13402" lon="3.10475">
        <ele>479</ele>
        <time>2026-08-21T15:24:23+00:00</time>
      </trkpt>
      <trkpt lat="44.13421" lon="3.10494">
        <ele>477</ele>
        <time>2026-08-21T15:24:26+00:00</time>
      </trkpt>
      <trkpt lat="44.13444" lon="3.1051">
        <ele>477</ele>
        <time>2026-08-21T15:24:29+00:00</time>
      </trkpt>
      <trkpt lat="44.13469" lon="3.10527">
        <ele>480</ele>
        <time>2026-08-21T15:24:32+00:00</time>
      </trkpt>
      <trkpt lat="44.13496" lon="3.10541">
        <ele>483</ele>
        <time>2026-08-21T15:24:35+00:00</time>
      </trkpt>
      <trkpt lat="44.13538" lon="3.10563">
        <ele>485</ele>
        <time>2026-08-21T15:24:38+00:00</time>
      </trkpt>
      <trkpt lat="44.13565" lon="3.10576">
        <ele>486</ele>
        <time>2026-08-21T15:24:41+00:00</time>
      </trkpt>
      <trkpt lat="44.13603" lon="3.10596">
        <ele>486</ele>
        <time>2026-08-21T15:24:44+00:00</time>
      </trkpt>
      <trkpt lat="44.13627" lon="3.10612">
        <ele>487</ele>
        <time>2026-08-21T15:24:47+00:00</time>
      </trkpt>
      <trkpt lat="44.13658" lon="3.10633">
        <ele>485</ele>
        <time>2026-08-21T15:24:50+00:00</time>
      </trkpt>
      <trkpt lat="44.13695" lon="3.10658">
        <ele>484</ele>
        <time>2026-08-21T15:24:53+00:00</time>
      </trkpt>
      <trkpt lat="44.13728" lon="3.10674">
        <ele>482</ele>
        <time>2026-08-21T15:24:56+00:00</time>
      </trkpt>
      <trkpt lat="44.13762" lon="3.10683">
        <ele>478</ele>
        <time>2026-08-21T15:24:59+00:00</time>
      </trkpt>
      <trkpt lat="44.138" lon="3.10687">
        <ele>474</ele>
        <time>2026-08-21T15:25:02+00:00</time>
      </trkpt>
      <trkpt lat="44.13829" lon="3.10692">
        <ele>474</ele>
        <time>2026-08-21T15:25:05+00:00</time>
      </trkpt>
      <trkpt lat="44.13846" lon="3.10686">
        <ele>471</ele>
        <time>2026-08-21T15:25:08+00:00</time>
      </trkpt>
      <trkpt lat="44.13855" lon="3.10668">
        <ele>470</ele>
        <time>2026-08-21T15:25:11+00:00</time>
      </trkpt>
      <trkpt lat="44.13865" lon="3.10648">
        <ele>470</ele>
        <time>2026-08-21T15:25:14+00:00</time>
      </trkpt>
      <trkpt lat="44.13874" lon="3.10659">
        <ele>470</ele>
        <time>2026-08-21T15:25:17+00:00</time>
      </trkpt>
      <trkpt lat="44.13891" lon="3.10675">
        <ele>468</ele>
        <time>2026-08-21T15:25:20+00:00</time>
      </trkpt>
      <trkpt lat="44.13899" lon="3.10683">
        <ele>467</ele>
        <time>2026-08-21T15:25:23+00:00</time>
      </trkpt>
      <trkpt lat="44.13907" lon="3.1069">
        <ele>467</ele>
        <time>2026-08-21T15:25:26+00:00</time>
      </trkpt>
      <trkpt lat="44.13915" lon="3.10699">
        <ele>466</ele>
        <time>2026-08-21T15:25:29+00:00</time>
      </trkpt>
      <trkpt lat="44.13939" lon="3.10721">
        <ele>466</ele>
        <time>2026-08-21T15:25:32+00:00</time>
      </trkpt>
      <trkpt lat="44.13945" lon="3.10728">
        <ele>465</ele>
        <time>2026-08-21T15:25:35+00:00</time>
      </trkpt>
      <trkpt lat="44.13952" lon="3.10733">
        <ele>465</ele>
        <time>2026-08-21T15:25:38+00:00</time>
      </trkpt>
      <trkpt lat="44.13961" lon="3.10742">
        <ele>465</ele>
        <time>2026-08-21T15:25:41+00:00</time>
      </trkpt>
      <trkpt lat="44.13967" lon="3.10749">
        <ele>465</ele>
        <time>2026-08-21T15:25:44+00:00</time>
      </trkpt>
      <trkpt lat="44.13973" lon="3.10758">
        <ele>464</ele>
        <time>2026-08-21T15:25:47+00:00</time>
      </trkpt>
      <trkpt lat="44.13981" lon="3.10772">
        <ele>465</ele>
        <time>2026-08-21T15:25:50+00:00</time>
      </trkpt>
      <trkpt lat="44.13989" lon="3.10787">
        <ele>465</ele>
        <time>2026-08-21T15:25:53+00:00</time>
      </trkpt>
      <trkpt lat="44.13997" lon="3.10811">
        <ele>464</ele>
        <time>2026-08-21T15:25:56+00:00</time>
      </trkpt>
      <trkpt lat="44.14005" lon="3.10824">
        <ele>465</ele>
        <time>2026-08-21T15:25:59+00:00</time>
      </trkpt>
      <trkpt lat="44.14012" lon="3.10836">
        <ele>464</ele>
        <time>2026-08-21T15:26:02+00:00</time>
      </trkpt>
      <trkpt lat="44.14022" lon="3.10852">
        <ele>464</ele>
        <time>2026-08-21T15:26:05+00:00</time>
      </trkpt>
      <trkpt lat="44.14029" lon="3.10866">
        <ele>464</ele>
        <time>2026-08-21T15:26:08+00:00</time>
      </trkpt>
      <trkpt lat="44.14033" lon="3.10874">
        <ele>464</ele>
        <time>2026-08-21T15:26:11+00:00</time>
      </trkpt>
      <trkpt lat="44.14038" lon="3.1089">
        <ele>465</ele>
        <time>2026-08-21T15:26:14+00:00</time>
      </trkpt>
      <trkpt lat="44.14047" lon="3.10906">
        <ele>465</ele>
        <time>2026-08-21T15:26:17+00:00</time>
      </trkpt>
      <trkpt lat="44.14051" lon="3.10917">
        <ele>465</ele>
        <time>2026-08-21T15:26:20+00:00</time>
      </trkpt>
      <trkpt lat="44.14055" lon="3.10926">
        <ele>465</ele>
        <time>2026-08-21T15:26:23+00:00</time>
      </trkpt>
      <trkpt lat="44.14058" lon="3.1093">
        <ele>465</ele>
        <time>2026-08-21T15:26:26+00:00</time>
      </trkpt>
      <trkpt lat="44.14064" lon="3.10939">
        <ele>466</ele>
        <time>2026-08-21T15:26:29+00:00</time>
      </trkpt>
      <trkpt lat="44.14077" lon="3.10953">
        <ele>468</ele>
        <time>2026-08-21T15:26:32+00:00</time>
      </trkpt>
      <trkpt lat="44.14086" lon="3.10963">
        <ele>467</ele>
        <time>2026-08-21T15:26:35+00:00</time>
      </trkpt>
      <trkpt lat="44.14093" lon="3.10976">
        <ele>467</ele>
        <time>2026-08-21T15:26:38+00:00</time>
      </trkpt>
      <trkpt lat="44.14098" lon="3.10987">
        <ele>468</ele>
        <time>2026-08-21T15:26:41+00:00</time>
      </trkpt>
      <trkpt lat="44.14101" lon="3.11006">
        <ele>467</ele>
        <time>2026-08-21T15:26:44+00:00</time>
      </trkpt>
      <trkpt lat="44.14103" lon="3.11019">
        <ele>468</ele>
        <time>2026-08-21T15:26:47+00:00</time>
      </trkpt>
      <trkpt lat="44.14103" lon="3.11046">
        <ele>470</ele>
        <time>2026-08-21T15:26:50+00:00</time>
      </trkpt>
      <trkpt lat="44.14103" lon="3.11059">
        <ele>469</ele>
        <time>2026-08-21T15:26:53+00:00</time>
      </trkpt>
      <trkpt lat="44.14103" lon="3.11073">
        <ele>470</ele>
        <time>2026-08-21T15:26:56+00:00</time>
      </trkpt>
      <trkpt lat="44.14106" lon="3.11086">
        <ele>471</ele>
        <time>2026-08-21T15:26:59+00:00</time>
      </trkpt>
      <trkpt lat="44.14109" lon="3.11099">
        <ele>473</ele>
        <time>2026-08-21T15:27:02+00:00</time>
      </trkpt>
      <trkpt lat="44.14116" lon="3.11116">
        <ele>472</ele>
        <time>2026-08-21T15:27:05+00:00</time>
      </trkpt>
      <trkpt lat="44.14115" lon="3.11119">
        <ele>472</ele>
        <time>2026-08-21T15:27:08+00:00</time>
      </trkpt>
      <trkpt lat="44.14113" lon="3.11133">
        <ele>474</ele>
        <time>2026-08-21T15:27:11+00:00</time>
      </trkpt>
      <trkpt lat="44.14112" lon="3.11161">
        <ele>477</ele>
        <time>2026-08-21T15:27:14+00:00</time>
      </trkpt>
      <trkpt lat="44.14117" lon="3.11177">
        <ele>478</ele>
        <time>2026-08-21T15:27:17+00:00</time>
      </trkpt>
      <trkpt lat="44.14121" lon="3.1119">
        <ele>479</ele>
        <time>2026-08-21T15:27:20+00:00</time>
      </trkpt>
      <trkpt lat="44.14124" lon="3.11199">
        <ele>480</ele>
        <time>2026-08-21T15:27:23+00:00</time>
      </trkpt>
      <trkpt lat="44.14128" lon="3.11204">
        <ele>481</ele>
        <time>2026-08-21T15:27:26+00:00</time>
      </trkpt>
      <trkpt lat="44.14135" lon="3.11205">
        <ele>479</ele>
        <time>2026-08-21T15:27:29+00:00</time>
      </trkpt>
      <trkpt lat="44.14144" lon="3.11203">
        <ele>481</ele>
        <time>2026-08-21T15:27:32+00:00</time>
      </trkpt>
      <trkpt lat="44.14149" lon="3.112">
        <ele>481</ele>
        <time>2026-08-21T15:27:35+00:00</time>
      </trkpt>
      <trkpt lat="44.14155" lon="3.11195">
        <ele>479</ele>
        <time>2026-08-21T15:27:38+00:00</time>
      </trkpt>
      <trkpt lat="44.14163" lon="3.11188">
        <ele>480</ele>
        <time>2026-08-21T15:27:41+00:00</time>
      </trkpt>
      <trkpt lat="44.14172" lon="3.1118">
        <ele>479</ele>
        <time>2026-08-21T15:27:44+00:00</time>
      </trkpt>
      <trkpt lat="44.14182" lon="3.11171">
        <ele>481</ele>
        <time>2026-08-21T15:27:47+00:00</time>
      </trkpt>
      <trkpt lat="44.14208" lon="3.11147">
        <ele>479</ele>
        <time>2026-08-21T15:27:50+00:00</time>
      </trkpt>
      <trkpt lat="44.14218" lon="3.11137">
        <ele>480</ele>
        <time>2026-08-21T15:27:53+00:00</time>
      </trkpt>
      <trkpt lat="44.14234" lon="3.1112">
        <ele>482</ele>
        <time>2026-08-21T15:27:56+00:00</time>
      </trkpt>
      <trkpt lat="44.14243" lon="3.11109">
        <ele>483</ele>
        <time>2026-08-21T15:27:59+00:00</time>
      </trkpt>
      <trkpt lat="44.14258" lon="3.11092">
        <ele>482</ele>
        <time>2026-08-21T15:28:02+00:00</time>
      </trkpt>
      <trkpt lat="44.14262" lon="3.11087">
        <ele>483</ele>
        <time>2026-08-21T15:28:05+00:00</time>
      </trkpt>
      <trkpt lat="44.1427" lon="3.1108">
        <ele>483</ele>
        <time>2026-08-21T15:28:08+00:00</time>
      </trkpt>
      <trkpt lat="44.14279" lon="3.11072">
        <ele>482</ele>
        <time>2026-08-21T15:28:11+00:00</time>
      </trkpt>
      <trkpt lat="44.1429" lon="3.11063">
        <ele>482</ele>
        <time>2026-08-21T15:28:14+00:00</time>
      </trkpt>
      <trkpt lat="44.14301" lon="3.11054">
        <ele>482</ele>
        <time>2026-08-21T15:28:17+00:00</time>
      </trkpt>
      <trkpt lat="44.14307" lon="3.1105">
        <ele>481</ele>
        <time>2026-08-21T15:28:20+00:00</time>
      </trkpt>
      <trkpt lat="44.14318" lon="3.11047">
        <ele>482</ele>
        <time>2026-08-21T15:28:23+00:00</time>
      </trkpt>
      <trkpt lat="44.14331" lon="3.11045">
        <ele>482</ele>
        <time>2026-08-21T15:28:26+00:00</time>
      </trkpt>
      <trkpt lat="44.1435" lon="3.1104">
        <ele>481</ele>
        <time>2026-08-21T15:28:29+00:00</time>
      </trkpt>
      <trkpt lat="44.14358" lon="3.11038">
        <ele>482</ele>
        <time>2026-08-21T15:28:32+00:00</time>
      </trkpt>
      <trkpt lat="44.14383" lon="3.11034">
        <ele>484</ele>
        <time>2026-08-21T15:28:35+00:00</time>
      </trkpt>
      <trkpt lat="44.14398" lon="3.11032">
        <ele>485</ele>
        <time>2026-08-21T15:28:38+00:00</time>
      </trkpt>
      <trkpt lat="44.1441" lon="3.1103">
        <ele>485</ele>
        <time>2026-08-21T15:28:41+00:00</time>
      </trkpt>
      <trkpt lat="44.1443" lon="3.11026">
        <ele>486</ele>
        <time>2026-08-21T15:28:44+00:00</time>
      </trkpt>
      <trkpt lat="44.14442" lon="3.11025">
        <ele>487</ele>
        <time>2026-08-21T15:28:47+00:00</time>
      </trkpt>
      <trkpt lat="44.14458" lon="3.11021">
        <ele>488</ele>
        <time>2026-08-21T15:28:50+00:00</time>
      </trkpt>
      <trkpt lat="44.14473" lon="3.11018">
        <ele>489</ele>
        <time>2026-08-21T15:28:53+00:00</time>
      </trkpt>
      <trkpt lat="44.14484" lon="3.11017">
        <ele>490</ele>
        <time>2026-08-21T15:28:56+00:00</time>
      </trkpt>
      <trkpt lat="44.14499" lon="3.11016">
        <ele>491</ele>
        <time>2026-08-21T15:28:59+00:00</time>
      </trkpt>
      <trkpt lat="44.14511" lon="3.11014">
        <ele>492</ele>
        <time>2026-08-21T15:29:02+00:00</time>
      </trkpt>
      <trkpt lat="44.14523" lon="3.11012">
        <ele>493</ele>
        <time>2026-08-21T15:29:05+00:00</time>
      </trkpt>
      <trkpt lat="44.14534" lon="3.1101">
        <ele>493</ele>
        <time>2026-08-21T15:29:08+00:00</time>
      </trkpt>
      <trkpt lat="44.14554" lon="3.11006">
        <ele>494</ele>
        <time>2026-08-21T15:29:11+00:00</time>
      </trkpt>
      <trkpt lat="44.14568" lon="3.11002">
        <ele>495</ele>
        <time>2026-08-21T15:29:14+00:00</time>
      </trkpt>
      <trkpt lat="44.14579" lon="3.11">
        <ele>494</ele>
        <time>2026-08-21T15:29:17+00:00</time>
      </trkpt>
      <trkpt lat="44.14591" lon="3.10998">
        <ele>493</ele>
        <time>2026-08-21T15:29:20+00:00</time>
      </trkpt>
      <trkpt lat="44.14599" lon="3.10999">
        <ele>493</ele>
        <time>2026-08-21T15:29:23+00:00</time>
      </trkpt>
      <trkpt lat="44.14614" lon="3.11">
        <ele>496</ele>
        <time>2026-08-21T15:29:26+00:00</time>
      </trkpt>
      <trkpt lat="44.1463" lon="3.11">
        <ele>493</ele>
        <time>2026-08-21T15:29:29+00:00</time>
      </trkpt>
      <trkpt lat="44.14656" lon="3.10995">
        <ele>493</ele>
        <time>2026-08-21T15:29:32+00:00</time>
      </trkpt>
      <trkpt lat="44.14661" lon="3.10997">
        <ele>494</ele>
        <time>2026-08-21T15:29:35+00:00</time>
      </trkpt>
      <trkpt lat="44.14661" lon="3.11">
        <ele>497</ele>
        <time>2026-08-21T15:29:38+00:00</time>
      </trkpt>
      <trkpt lat="44.14659" lon="3.11002">
        <ele>498</ele>
        <time>2026-08-21T15:29:41+00:00</time>
      </trkpt>
      <trkpt lat="44.14649" lon="3.11008">
        <ele>497</ele>
        <time>2026-08-21T15:29:44+00:00</time>
      </trkpt>
      <trkpt lat="44.14646" lon="3.11011">
        <ele>500</ele>
        <time>2026-08-21T15:29:47+00:00</time>
      </trkpt>
      <trkpt lat="44.1464" lon="3.11016">
        <ele>500</ele>
        <time>2026-08-21T15:29:50+00:00</time>
      </trkpt>
      <trkpt lat="44.14637" lon="3.11024">
        <ele>500</ele>
        <time>2026-08-21T15:29:53+00:00</time>
      </trkpt>
      <trkpt lat="44.14636" lon="3.11031">
        <ele>503</ele>
        <time>2026-08-21T15:29:56+00:00</time>
      </trkpt>
      <trkpt lat="44.14634" lon="3.11039">
        <ele>503</ele>
        <time>2026-08-21T15:29:59+00:00</time>
      </trkpt>
      <trkpt lat="44.14633" lon="3.11047">
        <ele>505</ele>
        <time>2026-08-21T15:30:02+00:00</time>
      </trkpt>
      <trkpt lat="44.1463" lon="3.11055">
        <ele>508</ele>
        <time>2026-08-21T15:30:05+00:00</time>
      </trkpt>
      <trkpt lat="44.14624" lon="3.11059">
        <ele>508</ele>
        <time>2026-08-21T15:30:08+00:00</time>
      </trkpt>
      <trkpt lat="44.14616" lon="3.11067">
        <ele>512</ele>
        <time>2026-08-21T15:30:11+00:00</time>
      </trkpt>
      <trkpt lat="44.14605" lon="3.11077">
        <ele>515</ele>
        <time>2026-08-21T15:30:14+00:00</time>
      </trkpt>
      <trkpt lat="44.14596" lon="3.11085">
        <ele>515</ele>
        <time>2026-08-21T15:30:17+00:00</time>
      </trkpt>
      <trkpt lat="44.14585" lon="3.11094">
        <ele>517</ele>
        <time>2026-08-21T15:30:20+00:00</time>
      </trkpt>
      <trkpt lat="44.14574" lon="3.11105">
        <ele>519</ele>
        <time>2026-08-21T15:30:23+00:00</time>
      </trkpt>
      <trkpt lat="44.14563" lon="3.11116">
        <ele>521</ele>
        <time>2026-08-21T15:30:26+00:00</time>
      </trkpt>
      <trkpt lat="44.14552" lon="3.11129">
        <ele>523</ele>
        <time>2026-08-21T15:30:29+00:00</time>
      </trkpt>
      <trkpt lat="44.14541" lon="3.1114">
        <ele>528</ele>
        <time>2026-08-21T15:30:32+00:00</time>
      </trkpt>
      <trkpt lat="44.14537" lon="3.11147">
        <ele>527</ele>
        <time>2026-08-21T15:30:35+00:00</time>
      </trkpt>
      <trkpt lat="44.14531" lon="3.11155">
        <ele>530</ele>
        <time>2026-08-21T15:30:38+00:00</time>
      </trkpt>
      <trkpt lat="44.14523" lon="3.11172">
        <ele>533</ele>
        <time>2026-08-21T15:30:41+00:00</time>
      </trkpt>
      <trkpt lat="44.14516" lon="3.11187">
        <ele>535</ele>
        <time>2026-08-21T15:30:44+00:00</time>
      </trkpt>
      <trkpt lat="44.14506" lon="3.11208">
        <ele>538</ele>
        <time>2026-08-21T15:30:47+00:00</time>
      </trkpt>
      <trkpt lat="44.14501" lon="3.11219">
        <ele>542</ele>
        <time>2026-08-21T15:30:50+00:00</time>
      </trkpt>
      <trkpt lat="44.14493" lon="3.11232">
        <ele>545</ele>
        <time>2026-08-21T15:30:53+00:00</time>
      </trkpt>
      <trkpt lat="44.14488" lon="3.11241">
        <ele>548</ele>
        <time>2026-08-21T15:30:56+00:00</time>
      </trkpt>
      <trkpt lat="44.14484" lon="3.11249">
        <ele>548</ele>
        <time>2026-08-21T15:30:59+00:00</time>
      </trkpt>
      <trkpt lat="44.14475" lon="3.1126">
        <ele>552</ele>
        <time>2026-08-21T15:31:02+00:00</time>
      </trkpt>
      <trkpt lat="44.14462" lon="3.11275">
        <ele>556</ele>
        <time>2026-08-21T15:31:05+00:00</time>
      </trkpt>
      <trkpt lat="44.14454" lon="3.11283">
        <ele>558</ele>
        <time>2026-08-21T15:31:08+00:00</time>
      </trkpt>
      <trkpt lat="44.14449" lon="3.11287">
        <ele>556</ele>
        <time>2026-08-21T15:31:11+00:00</time>
      </trkpt>
      <trkpt lat="44.14441" lon="3.11297">
        <ele>561</ele>
        <time>2026-08-21T15:31:14+00:00</time>
      </trkpt>
      <trkpt lat="44.14436" lon="3.11304">
        <ele>564</ele>
        <time>2026-08-21T15:31:17+00:00</time>
      </trkpt>
      <trkpt lat="44.14429" lon="3.11309">
        <ele>562</ele>
        <time>2026-08-21T15:31:20+00:00</time>
      </trkpt>
      <trkpt lat="44.1442" lon="3.11315">
        <ele>566</ele>
        <time>2026-08-21T15:31:23+00:00</time>
      </trkpt>
      <trkpt lat="44.14409" lon="3.11323">
        <ele>568</ele>
        <time>2026-08-21T15:31:26+00:00</time>
      </trkpt>
      <trkpt lat="44.14406" lon="3.11325">
        <ele>568</ele>
        <time>2026-08-21T15:31:29+00:00</time>
      </trkpt>
      <trkpt lat="44.14401" lon="3.11329">
        <ele>568</ele>
        <time>2026-08-21T15:31:32+00:00</time>
      </trkpt>
      <trkpt lat="44.14391" lon="3.1134">
        <ele>573</ele>
        <time>2026-08-21T15:31:35+00:00</time>
      </trkpt>
      <trkpt lat="44.14383" lon="3.11348">
        <ele>575</ele>
        <time>2026-08-21T15:31:38+00:00</time>
      </trkpt>
      <trkpt lat="44.14371" lon="3.11357">
        <ele>575</ele>
        <time>2026-08-21T15:31:41+00:00</time>
      </trkpt>
      <trkpt lat="44.14357" lon="3.11369">
        <ele>577</ele>
        <time>2026-08-21T15:31:44+00:00</time>
      </trkpt>
      <trkpt lat="44.14342" lon="3.11381">
        <ele>583</ele>
        <time>2026-08-21T15:31:47+00:00</time>
      </trkpt>
      <trkpt lat="44.14339" lon="3.11385">
        <ele>579</ele>
        <time>2026-08-21T15:31:50+00:00</time>
      </trkpt>
      <trkpt lat="44.14328" lon="3.11398">
        <ele>583</ele>
        <time>2026-08-21T15:31:53+00:00</time>
      </trkpt>
      <trkpt lat="44.1432" lon="3.11408">
        <ele>588</ele>
        <time>2026-08-21T15:31:56+00:00</time>
      </trkpt>
      <trkpt lat="44.1431" lon="3.11422">
        <ele>594</ele>
        <time>2026-08-21T15:31:59+00:00</time>
      </trkpt>
      <trkpt lat="44.14298" lon="3.11442">
        <ele>595</ele>
        <time>2026-08-21T15:32:02+00:00</time>
      </trkpt>
      <trkpt lat="44.14283" lon="3.11462">
        <ele>600</ele>
        <time>2026-08-21T15:32:05+00:00</time>
      </trkpt>
      <trkpt lat="44.14274" lon="3.11474">
        <ele>601</ele>
        <time>2026-08-21T15:32:08+00:00</time>
      </trkpt>
      <trkpt lat="44.1427" lon="3.11488">
        <ele>601</ele>
        <time>2026-08-21T15:32:11+00:00</time>
      </trkpt>
      <trkpt lat="44.1426" lon="3.11504">
        <ele>608</ele>
        <time>2026-08-21T15:32:14+00:00</time>
      </trkpt>
      <trkpt lat="44.14254" lon="3.11518">
        <ele>607</ele>
        <time>2026-08-21T15:32:17+00:00</time>
      </trkpt>
      <trkpt lat="44.14247" lon="3.11534">
        <ele>609</ele>
        <time>2026-08-21T15:32:20+00:00</time>
      </trkpt>
      <trkpt lat="44.14242" lon="3.11551">
        <ele>615</ele>
        <time>2026-08-21T15:32:23+00:00</time>
      </trkpt>
      <trkpt lat="44.14239" lon="3.11561">
        <ele>612</ele>
        <time>2026-08-21T15:32:26+00:00</time>
      </trkpt>
      <trkpt lat="44.14235" lon="3.11573">
        <ele>615</ele>
        <time>2026-08-21T15:32:29+00:00</time>
      </trkpt>
      <trkpt lat="44.14233" lon="3.11604">
        <ele>620</ele>
        <time>2026-08-21T15:32:32+00:00</time>
      </trkpt>
      <trkpt lat="44.14232" lon="3.11631">
        <ele>622</ele>
        <time>2026-08-21T15:32:35+00:00</time>
      </trkpt>
      <trkpt lat="44.14232" lon="3.11654">
        <ele>622</ele>
        <time>2026-08-21T15:32:38+00:00</time>
      </trkpt>
      <trkpt lat="44.14232" lon="3.11663">
        <ele>622</ele>
        <time>2026-08-21T15:32:41+00:00</time>
      </trkpt>
      <trkpt lat="44.14236" lon="3.11678">
        <ele>621</ele>
        <time>2026-08-21T15:32:44+00:00</time>
      </trkpt>
      <trkpt lat="44.14241" lon="3.11688">
        <ele>622</ele>
        <time>2026-08-21T15:32:47+00:00</time>
      </trkpt>
      <trkpt lat="44.14246" lon="3.11697">
        <ele>622</ele>
        <time>2026-08-21T15:32:50+00:00</time>
      </trkpt>
      <trkpt lat="44.14253" lon="3.11706">
        <ele>625</ele>
        <time>2026-08-21T15:32:53+00:00</time>
      </trkpt>
      <trkpt lat="44.14258" lon="3.11713">
        <ele>623</ele>
        <time>2026-08-21T15:32:56+00:00</time>
      </trkpt>
      <trkpt lat="44.1426" lon="3.11717">
        <ele>623</ele>
        <time>2026-08-21T15:32:59+00:00</time>
      </trkpt>
      <trkpt lat="44.14262" lon="3.11724">
        <ele>629</ele>
        <time>2026-08-21T15:33:02+00:00</time>
      </trkpt>
      <trkpt lat="44.14264" lon="3.1173">
        <ele>629</ele>
        <time>2026-08-21T15:33:05+00:00</time>
      </trkpt>
      <trkpt lat="44.14269" lon="3.11747">
        <ele>624</ele>
        <time>2026-08-21T15:33:08+00:00</time>
      </trkpt>
      <trkpt lat="44.14271" lon="3.11756">
        <ele>632</ele>
        <time>2026-08-21T15:33:11+00:00</time>
      </trkpt>
      <trkpt lat="44.14269" lon="3.11755">
        <ele>627</ele>
        <time>2026-08-21T15:33:14+00:00</time>
      </trkpt>
      <trkpt lat="44.14266" lon="3.11754">
        <ele>627</ele>
        <time>2026-08-21T15:33:17+00:00</time>
      </trkpt>
      <trkpt lat="44.14263" lon="3.11761">
        <ele>626</ele>
        <time>2026-08-21T15:33:20+00:00</time>
      </trkpt>
      <trkpt lat="44.14264" lon="3.11776">
        <ele>623</ele>
        <time>2026-08-21T15:33:23+00:00</time>
      </trkpt>
      <trkpt lat="44.14262" lon="3.1179">
        <ele>623</ele>
        <time>2026-08-21T15:33:26+00:00</time>
      </trkpt>
      <trkpt lat="44.14262" lon="3.11799">
        <ele>623</ele>
        <time>2026-08-21T15:33:29+00:00</time>
      </trkpt>
      <trkpt lat="44.14261" lon="3.11808">
        <ele>622</ele>
        <time>2026-08-21T15:33:32+00:00</time>
      </trkpt>
      <trkpt lat="44.14258" lon="3.11819">
        <ele>614</ele>
        <time>2026-08-21T15:33:35+00:00</time>
      </trkpt>
      <trkpt lat="44.14254" lon="3.11832">
        <ele>612</ele>
        <time>2026-08-21T15:33:38+00:00</time>
      </trkpt>
      <trkpt lat="44.14254" lon="3.11838">
        <ele>612</ele>
        <time>2026-08-21T15:33:41+00:00</time>
      </trkpt>
      <trkpt lat="44.14255" lon="3.11848">
        <ele>612</ele>
        <time>2026-08-21T15:33:44+00:00</time>
      </trkpt>
      <trkpt lat="44.14256" lon="3.11859">
        <ele>610</ele>
        <time>2026-08-21T15:33:47+00:00</time>
      </trkpt>
      <trkpt lat="44.1426" lon="3.1188">
        <ele>612</ele>
        <time>2026-08-21T15:33:50+00:00</time>
      </trkpt>
      <trkpt lat="44.14261" lon="3.11894">
        <ele>612</ele>
        <time>2026-08-21T15:33:53+00:00</time>
      </trkpt>
      <trkpt lat="44.14261" lon="3.11909">
        <ele>612</ele>
        <time>2026-08-21T15:33:56+00:00</time>
      </trkpt>
      <trkpt lat="44.14261" lon="3.11916">
        <ele>611</ele>
        <time>2026-08-21T15:33:59+00:00</time>
      </trkpt>
      <trkpt lat="44.1426" lon="3.11924">
        <ele>611</ele>
        <time>2026-08-21T15:34:02+00:00</time>
      </trkpt>
      <trkpt lat="44.14259" lon="3.11927">
        <ele>605</ele>
        <time>2026-08-21T15:34:05+00:00</time>
      </trkpt>
      <trkpt lat="44.14256" lon="3.11927">
        <ele>605</ele>
        <time>2026-08-21T15:34:08+00:00</time>
      </trkpt>
      <trkpt lat="44.14253" lon="3.11929">
        <ele>605</ele>
        <time>2026-08-21T15:34:11+00:00</time>
      </trkpt>
      <trkpt lat="44.14249" lon="3.11933">
        <ele>602</ele>
        <time>2026-08-21T15:34:14+00:00</time>
      </trkpt>
      <trkpt lat="44.14245" lon="3.11941">
        <ele>604</ele>
        <time>2026-08-21T15:34:17+00:00</time>
      </trkpt>
      <trkpt lat="44.14242" lon="3.11946">
        <ele>604</ele>
        <time>2026-08-21T15:34:20+00:00</time>
      </trkpt>
      <trkpt lat="44.14239" lon="3.11949">
        <ele>602</ele>
        <time>2026-08-21T15:34:23+00:00</time>
      </trkpt>
      <trkpt lat="44.14236" lon="3.11952">
        <ele>604</ele>
        <time>2026-08-21T15:34:26+00:00</time>
      </trkpt>
      <trkpt lat="44.14234" lon="3.11951">
        <ele>604</ele>
        <time>2026-08-21T15:34:29+00:00</time>
      </trkpt>
      <trkpt lat="44.14234" lon="3.11941">
        <ele>602</ele>
        <time>2026-08-21T15:34:32+00:00</time>
      </trkpt>
      <trkpt lat="44.14234" lon="3.1193">
        <ele>600</ele>
        <time>2026-08-21T15:34:35+00:00</time>
      </trkpt>
      <trkpt lat="44.14233" lon="3.11928">
        <ele>599</ele>
        <time>2026-08-21T15:34:38+00:00</time>
      </trkpt>
      <trkpt lat="44.14232" lon="3.11923">
        <ele>599</ele>
        <time>2026-08-21T15:34:41+00:00</time>
      </trkpt>
      <trkpt lat="44.14227" lon="3.11916">
        <ele>595</ele>
        <time>2026-08-21T15:34:44+00:00</time>
      </trkpt>
      <trkpt lat="44.14221" lon="3.11908">
        <ele>594</ele>
        <time>2026-08-21T15:34:47+00:00</time>
      </trkpt>
      <trkpt lat="44.14213" lon="3.11896">
        <ele>590</ele>
        <time>2026-08-21T15:34:50+00:00</time>
      </trkpt>
      <trkpt lat="44.14209" lon="3.11885">
        <ele>587</ele>
        <time>2026-08-21T15:34:53+00:00</time>
      </trkpt>
      <trkpt lat="44.14201" lon="3.11877">
        <ele>585</ele>
        <time>2026-08-21T15:34:56+00:00</time>
      </trkpt>
      <trkpt lat="44.14196" lon="3.11872">
        <ele>582</ele>
        <time>2026-08-21T15:34:59+00:00</time>
      </trkpt>
      <trkpt lat="44.14193" lon="3.11864">
        <ele>581</ele>
        <time>2026-08-21T15:35:02+00:00</time>
      </trkpt>
      <trkpt lat="44.14186" lon="3.11854">
        <ele>578</ele>
        <time>2026-08-21T15:35:05+00:00</time>
      </trkpt>
      <trkpt lat="44.14182" lon="3.11848">
        <ele>576</ele>
        <time>2026-08-21T15:35:08+00:00</time>
      </trkpt>
      <trkpt lat="44.14176" lon="3.11835">
        <ele>573</ele>
        <time>2026-08-21T15:35:11+00:00</time>
      </trkpt>
      <trkpt lat="44.14171" lon="3.11824">
        <ele>572</ele>
        <time>2026-08-21T15:35:14+00:00</time>
      </trkpt>
      <trkpt lat="44.14166" lon="3.11813">
        <ele>568</ele>
        <time>2026-08-21T15:35:17+00:00</time>
      </trkpt>
      <trkpt lat="44.14165" lon="3.1181">
        <ele>568</ele>
        <time>2026-08-21T15:35:20+00:00</time>
      </trkpt>
      <trkpt lat="44.14165" lon="3.11801">
        <ele>567</ele>
        <time>2026-08-21T15:35:23+00:00</time>
      </trkpt>
      <trkpt lat="44.14165" lon="3.11793">
        <ele>565</ele>
        <time>2026-08-21T15:35:26+00:00</time>
      </trkpt>
      <trkpt lat="44.14163" lon="3.11787">
        <ele>564</ele>
        <time>2026-08-21T15:35:29+00:00</time>
      </trkpt>
      <trkpt lat="44.14155" lon="3.11773">
        <ele>562</ele>
        <time>2026-08-21T15:35:32+00:00</time>
      </trkpt>
      <trkpt lat="44.14149" lon="3.11767">
        <ele>559</ele>
        <time>2026-08-21T15:35:35+00:00</time>
      </trkpt>
      <trkpt lat="44.14141" lon="3.11764">
        <ele>559</ele>
        <time>2026-08-21T15:35:38+00:00</time>
      </trkpt>
      <trkpt lat="44.14126" lon="3.11759">
        <ele>558</ele>
        <time>2026-08-21T15:35:41+00:00</time>
      </trkpt>
      <trkpt lat="44.1412" lon="3.11754">
        <ele>558</ele>
        <time>2026-08-21T15:35:44+00:00</time>
      </trkpt>
      <trkpt lat="44.14117" lon="3.11747">
        <ele>554</ele>
        <time>2026-08-21T15:35:47+00:00</time>
      </trkpt>
      <trkpt lat="44.14112" lon="3.11741">
        <ele>554</ele>
        <time>2026-08-21T15:35:50+00:00</time>
      </trkpt>
      <trkpt lat="44.14105" lon="3.11734">
        <ele>552</ele>
        <time>2026-08-21T15:35:53+00:00</time>
      </trkpt>
      <trkpt lat="44.14098" lon="3.11727">
        <ele>552</ele>
        <time>2026-08-21T15:35:56+00:00</time>
      </trkpt>
      <trkpt lat="44.14093" lon="3.11715">
        <ele>548</ele>
        <time>2026-08-21T15:35:59+00:00</time>
      </trkpt>
      <trkpt lat="44.14088" lon="3.11704">
        <ele>550</ele>
        <time>2026-08-21T15:36:02+00:00</time>
      </trkpt>
      <trkpt lat="44.14086" lon="3.11692">
        <ele>548</ele>
        <time>2026-08-21T15:36:05+00:00</time>
      </trkpt>
      <trkpt lat="44.14083" lon="3.11681">
        <ele>545</ele>
        <time>2026-08-21T15:36:08+00:00</time>
      </trkpt>
      <trkpt lat="44.14082" lon="3.11672">
        <ele>543</ele>
        <time>2026-08-21T15:36:11+00:00</time>
      </trkpt>
      <trkpt lat="44.14078" lon="3.11648">
        <ele>545</ele>
        <time>2026-08-21T15:36:14+00:00</time>
      </trkpt>
      <trkpt lat="44.14076" lon="3.11637">
        <ele>543</ele>
        <time>2026-08-21T15:36:17+00:00</time>
      </trkpt>
      <trkpt lat="44.14072" lon="3.11614">
        <ele>538</ele>
        <time>2026-08-21T15:36:20+00:00</time>
      </trkpt>
      <trkpt lat="44.14069" lon="3.11591">
        <ele>539</ele>
        <time>2026-08-21T15:36:23+00:00</time>
      </trkpt>
      <trkpt lat="44.14067" lon="3.11577">
        <ele>535</ele>
        <time>2026-08-21T15:36:26+00:00</time>
      </trkpt>
      <trkpt lat="44.14067" lon="3.11561">
        <ele>533</ele>
        <time>2026-08-21T15:36:29+00:00</time>
      </trkpt>
      <trkpt lat="44.14069" lon="3.11545">
        <ele>531</ele>
        <time>2026-08-21T15:36:32+00:00</time>
      </trkpt>
      <trkpt lat="44.1407" lon="3.11539">
        <ele>524</ele>
        <time>2026-08-21T15:36:35+00:00</time>
      </trkpt>
      <trkpt lat="44.1407" lon="3.1153">
        <ele>525</ele>
        <time>2026-08-21T15:36:38+00:00</time>
      </trkpt>
      <trkpt lat="44.14069" lon="3.11516">
        <ele>523</ele>
        <time>2026-08-21T15:36:41+00:00</time>
      </trkpt>
      <trkpt lat="44.14067" lon="3.11498">
        <ele>519</ele>
        <time>2026-08-21T15:36:44+00:00</time>
      </trkpt>
      <trkpt lat="44.14066" lon="3.1147">
        <ele>515</ele>
        <time>2026-08-21T15:36:47+00:00</time>
      </trkpt>
      <trkpt lat="44.1407" lon="3.11461">
        <ele>514</ele>
        <time>2026-08-21T15:36:50+00:00</time>
      </trkpt>
      <trkpt lat="44.1407" lon="3.11449">
        <ele>512</ele>
        <time>2026-08-21T15:36:53+00:00</time>
      </trkpt>
      <trkpt lat="44.14066" lon="3.11427">
        <ele>510</ele>
        <time>2026-08-21T15:36:56+00:00</time>
      </trkpt>
      <trkpt lat="44.14063" lon="3.11406">
        <ele>507</ele>
        <time>2026-08-21T15:36:59+00:00</time>
      </trkpt>
      <trkpt lat="44.14064" lon="3.11389">
        <ele>503</ele>
        <time>2026-08-21T15:37:02+00:00</time>
      </trkpt>
      <trkpt lat="44.14063" lon="3.11376">
        <ele>502</ele>
        <time>2026-08-21T15:37:05+00:00</time>
      </trkpt>
      <trkpt lat="44.14063" lon="3.11363">
        <ele>501</ele>
        <time>2026-08-21T15:37:08+00:00</time>
      </trkpt>
      <trkpt lat="44.14062" lon="3.11337">
        <ele>497</ele>
        <time>2026-08-21T15:37:11+00:00</time>
      </trkpt>
      <trkpt lat="44.14061" lon="3.1133">
        <ele>496</ele>
        <time>2026-08-21T15:37:14+00:00</time>
      </trkpt>
      <trkpt lat="44.14061" lon="3.11303">
        <ele>500</ele>
        <time>2026-08-21T15:37:17+00:00</time>
      </trkpt>
      <trkpt lat="44.14055" lon="3.11283">
        <ele>502</ele>
        <time>2026-08-21T15:37:20+00:00</time>
      </trkpt>
      <trkpt lat="44.14052" lon="3.11255">
        <ele>503</ele>
        <time>2026-08-21T15:37:23+00:00</time>
      </trkpt>
      <trkpt lat="44.14049" lon="3.1123">
        <ele>513</ele>
        <time>2026-08-21T15:37:26+00:00</time>
      </trkpt>
      <trkpt lat="44.14044" lon="3.11216">
        <ele>512</ele>
        <time>2026-08-21T15:37:29+00:00</time>
      </trkpt>
      <trkpt lat="44.14038" lon="3.11206">
        <ele>515</ele>
        <time>2026-08-21T15:37:32+00:00</time>
      </trkpt>
      <trkpt lat="44.14025" lon="3.11194">
        <ele>513</ele>
        <time>2026-08-21T15:37:35+00:00</time>
      </trkpt>
      <trkpt lat="44.14021" lon="3.11177">
        <ele>514</ele>
        <time>2026-08-21T15:37:38+00:00</time>
      </trkpt>
      <trkpt lat="44.14013" lon="3.11157">
        <ele>513</ele>
        <time>2026-08-21T15:37:41+00:00</time>
      </trkpt>
      <trkpt lat="44.14005" lon="3.11143">
        <ele>515</ele>
        <time>2026-08-21T15:37:44+00:00</time>
      </trkpt>
      <trkpt lat="44.13992" lon="3.11126">
        <ele>514</ele>
        <time>2026-08-21T15:37:47+00:00</time>
      </trkpt>
      <trkpt lat="44.13975" lon="3.11116">
        <ele>518</ele>
        <time>2026-08-21T15:37:50+00:00</time>
      </trkpt>
      <trkpt lat="44.13959" lon="3.11116">
        <ele>521</ele>
        <time>2026-08-21T15:37:53+00:00</time>
      </trkpt>
      <trkpt lat="44.13932" lon="3.1111">
        <ele>521</ele>
        <time>2026-08-21T15:37:56+00:00</time>
      </trkpt>
      <trkpt lat="44.13931" lon="3.11121">
        <ele>532</ele>
        <time>2026-08-21T15:37:59+00:00</time>
      </trkpt>
      <trkpt lat="44.13947" lon="3.11142">
        <ele>537</ele>
        <time>2026-08-21T15:38:02+00:00</time>
      </trkpt>
      <trkpt lat="44.13955" lon="3.11164">
        <ele>542</ele>
        <time>2026-08-21T15:38:05+00:00</time>
      </trkpt>
      <trkpt lat="44.13957" lon="3.11177">
        <ele>544</ele>
        <time>2026-08-21T15:38:08+00:00</time>
      </trkpt>
      <trkpt lat="44.13955" lon="3.11196">
        <ele>549</ele>
        <time>2026-08-21T15:38:11+00:00</time>
      </trkpt>
      <trkpt lat="44.13947" lon="3.112">
        <ele>554</ele>
        <time>2026-08-21T15:38:14+00:00</time>
      </trkpt>
      <trkpt lat="44.13937" lon="3.11196">
        <ele>557</ele>
        <time>2026-08-21T15:38:17+00:00</time>
      </trkpt>
      <trkpt lat="44.13924" lon="3.11189">
        <ele>561</ele>
        <time>2026-08-21T15:38:20+00:00</time>
      </trkpt>
      <trkpt lat="44.13909" lon="3.11179">
        <ele>565</ele>
        <time>2026-08-21T15:38:23+00:00</time>
      </trkpt>
      <trkpt lat="44.13889" lon="3.11168">
        <ele>571</ele>
        <time>2026-08-21T15:38:26+00:00</time>
      </trkpt>
      <trkpt lat="44.13874" lon="3.11159">
        <ele>574</ele>
        <time>2026-08-21T15:38:29+00:00</time>
      </trkpt>
      <trkpt lat="44.13858" lon="3.11149">
        <ele>581</ele>
        <time>2026-08-21T15:38:32+00:00</time>
      </trkpt>
      <trkpt lat="44.13849" lon="3.11143">
        <ele>586</ele>
        <time>2026-08-21T15:38:35+00:00</time>
      </trkpt>
      <trkpt lat="44.13837" lon="3.11137">
        <ele>590</ele>
        <time>2026-08-21T15:38:38+00:00</time>
      </trkpt>
      <trkpt lat="44.13822" lon="3.11128">
        <ele>591</ele>
        <time>2026-08-21T15:38:41+00:00</time>
      </trkpt>
      <trkpt lat="44.138" lon="3.11116">
        <ele>604</ele>
        <time>2026-08-21T15:38:44+00:00</time>
      </trkpt>
      <trkpt lat="44.13778" lon="3.11104">
        <ele>611</ele>
        <time>2026-08-21T15:38:47+00:00</time>
      </trkpt>
      <trkpt lat="44.13766" lon="3.11099">
        <ele>612</ele>
        <time>2026-08-21T15:38:50+00:00</time>
      </trkpt>
      <trkpt lat="44.13758" lon="3.11096">
        <ele>614</ele>
        <time>2026-08-21T15:38:53+00:00</time>
      </trkpt>
      <trkpt lat="44.13741" lon="3.11092">
        <ele>617</ele>
        <time>2026-08-21T15:38:56+00:00</time>
      </trkpt>
      <trkpt lat="44.1373" lon="3.1109">
        <ele>613</ele>
        <time>2026-08-21T15:38:59+00:00</time>
      </trkpt>
      <trkpt lat="44.13719" lon="3.11093">
        <ele>622</ele>
        <time>2026-08-21T15:39:02+00:00</time>
      </trkpt>
      <trkpt lat="44.13709" lon="3.11077">
        <ele>613</ele>
        <time>2026-08-21T15:39:05+00:00</time>
      </trkpt>
      <trkpt lat="44.13693" lon="3.1106">
        <ele>610</ele>
        <time>2026-08-21T15:39:08+00:00</time>
      </trkpt>
      <trkpt lat="44.13678" lon="3.11034">
        <ele>598</ele>
        <time>2026-08-21T15:39:11+00:00</time>
      </trkpt>
      <trkpt lat="44.13666" lon="3.11013">
        <ele>589</ele>
        <time>2026-08-21T15:39:14+00:00</time>
      </trkpt>
      <trkpt lat="44.13657" lon="3.11001">
        <ele>586</ele>
        <time>2026-08-21T15:39:17+00:00</time>
      </trkpt>
      <trkpt lat="44.13654" lon="3.1099">
        <ele>581</ele>
        <time>2026-08-21T15:39:20+00:00</time>
      </trkpt>
      <trkpt lat="44.13657" lon="3.10976">
        <ele>574</ele>
        <time>2026-08-21T15:39:23+00:00</time>
      </trkpt>
      <trkpt lat="44.13666" lon="3.10969">
        <ele>566</ele>
        <time>2026-08-21T15:39:26+00:00</time>
      </trkpt>
      <trkpt lat="44.13686" lon="3.10959">
        <ele>561</ele>
        <time>2026-08-21T15:39:29+00:00</time>
      </trkpt>
      <trkpt lat="44.13697" lon="3.10951">
        <ele>561</ele>
        <time>2026-08-21T15:39:32+00:00</time>
      </trkpt>
      <trkpt lat="44.13707" lon="3.10946">
        <ele>556</ele>
        <time>2026-08-21T15:39:35+00:00</time>
      </trkpt>
      <trkpt lat="44.13726" lon="3.10937">
        <ele>549</ele>
        <time>2026-08-21T15:39:38+00:00</time>
      </trkpt>
      <trkpt lat="44.13738" lon="3.10931">
        <ele>549</ele>
        <time>2026-08-21T15:39:41+00:00</time>
      </trkpt>
      <trkpt lat="44.13756" lon="3.10925">
        <ele>541</ele>
        <time>2026-08-21T15:39:44+00:00</time>
      </trkpt>
      <trkpt lat="44.13784" lon="3.10917">
        <ele>530</ele>
        <time>2026-08-21T15:39:47+00:00</time>
      </trkpt>
      <trkpt lat="44.13785" lon="3.10916">
        <ele>530</ele>
        <time>2026-08-21T15:39:50+00:00</time>
      </trkpt>
      <trkpt lat="44.13785" lon="3.10914">
        <ele>530</ele>
        <time>2026-08-21T15:39:53+00:00</time>
      </trkpt>
      <trkpt lat="44.13784" lon="3.10912">
        <ele>530</ele>
        <time>2026-08-21T15:39:56+00:00</time>
      </trkpt>
      <trkpt lat="44.1378" lon="3.10911">
        <ele>532</ele>
        <time>2026-08-21T15:39:59+00:00</time>
      </trkpt>
      <trkpt lat="44.13764" lon="3.1091">
        <ele>526</ele>
        <time>2026-08-21T15:40:02+00:00</time>
      </trkpt>
      <trkpt lat="44.13748" lon="3.10905">
        <ele>528</ele>
        <time>2026-08-21T15:40:05+00:00</time>
      </trkpt>
      <trkpt lat="44.13718" lon="3.10892">
        <ele>526</ele>
        <time>2026-08-21T15:40:08+00:00</time>
      </trkpt>
      <trkpt lat="44.13703" lon="3.1089">
        <ele>526</ele>
        <time>2026-08-21T15:40:11+00:00</time>
      </trkpt>
      <trkpt lat="44.13676" lon="3.10892">
        <ele>527</ele>
        <time>2026-08-21T15:40:14+00:00</time>
      </trkpt>
      <trkpt lat="44.13645" lon="3.10898">
        <ele>527</ele>
        <time>2026-08-21T15:40:17+00:00</time>
      </trkpt>
      <trkpt lat="44.13622" lon="3.10898">
        <ele>527</ele>
        <time>2026-08-21T15:40:20+00:00</time>
      </trkpt>
      <trkpt lat="44.13598" lon="3.10898">
        <ele>528</ele>
        <time>2026-08-21T15:40:23+00:00</time>
      </trkpt>
      <trkpt lat="44.13587" lon="3.10899">
        <ele>529</ele>
        <time>2026-08-21T15:40:26+00:00</time>
      </trkpt>
      <trkpt lat="44.13578" lon="3.10895">
        <ele>528</ele>
        <time>2026-08-21T15:40:29+00:00</time>
      </trkpt>
      <trkpt lat="44.13572" lon="3.10893">
        <ele>529</ele>
        <time>2026-08-21T15:40:32+00:00</time>
      </trkpt>
      <trkpt lat="44.13565" lon="3.10893">
        <ele>529</ele>
        <time>2026-08-21T15:40:35+00:00</time>
      </trkpt>
      <trkpt lat="44.13561" lon="3.1089">
        <ele>527</ele>
        <time>2026-08-21T15:40:38+00:00</time>
      </trkpt>
      <trkpt lat="44.1356" lon="3.10886">
        <ele>528</ele>
        <time>2026-08-21T15:40:41+00:00</time>
      </trkpt>
      <trkpt lat="44.13562" lon="3.10881">
        <ele>527</ele>
        <time>2026-08-21T15:40:44+00:00</time>
      </trkpt>
      <trkpt lat="44.1357" lon="3.10865">
        <ele>524</ele>
        <time>2026-08-21T15:40:47+00:00</time>
      </trkpt>
      <trkpt lat="44.13576" lon="3.10843">
        <ele>523</ele>
        <time>2026-08-21T15:40:50+00:00</time>
      </trkpt>
      <trkpt lat="44.13579" lon="3.10829">
        <ele>520</ele>
        <time>2026-08-21T15:40:53+00:00</time>
      </trkpt>
      <trkpt lat="44.13579" lon="3.10823">
        <ele>520</ele>
        <time>2026-08-21T15:40:56+00:00</time>
      </trkpt>
      <trkpt lat="44.13577" lon="3.10819">
        <ele>517</ele>
        <time>2026-08-21T15:40:59+00:00</time>
      </trkpt>
      <trkpt lat="44.13573" lon="3.10818">
        <ele>521</ele>
        <time>2026-08-21T15:41:02+00:00</time>
      </trkpt>
      <trkpt lat="44.13564" lon="3.10819">
        <ele>517</ele>
        <time>2026-08-21T15:41:05+00:00</time>
      </trkpt>
      <trkpt lat="44.13551" lon="3.1082">
        <ele>520</ele>
        <time>2026-08-21T15:41:08+00:00</time>
      </trkpt>
      <trkpt lat="44.13538" lon="3.10822">
        <ele>521</ele>
        <time>2026-08-21T15:41:11+00:00</time>
      </trkpt>
      <trkpt lat="44.13525" lon="3.10824">
        <ele>520</ele>
        <time>2026-08-21T15:41:14+00:00</time>
      </trkpt>
      <trkpt lat="44.13508" lon="3.10825">
        <ele>519</ele>
        <time>2026-08-21T15:41:17+00:00</time>
      </trkpt>
      <trkpt lat="44.13494" lon="3.10825">
        <ele>518</ele>
        <time>2026-08-21T15:41:20+00:00</time>
      </trkpt>
      <trkpt lat="44.13482" lon="3.10823">
        <ele>518</ele>
        <time>2026-08-21T15:41:23+00:00</time>
      </trkpt>
      <trkpt lat="44.13474" lon="3.10821">
        <ele>518</ele>
        <time>2026-08-21T15:41:26+00:00</time>
      </trkpt>
      <trkpt lat="44.13463" lon="3.10819">
        <ele>516</ele>
        <time>2026-08-21T15:41:29+00:00</time>
      </trkpt>
      <trkpt lat="44.13455" lon="3.10817">
        <ele>517</ele>
        <time>2026-08-21T15:41:32+00:00</time>
      </trkpt>
      <trkpt lat="44.13442" lon="3.10814">
        <ele>518</ele>
        <time>2026-08-21T15:41:35+00:00</time>
      </trkpt>
      <trkpt lat="44.13432" lon="3.10812">
        <ele>519</ele>
        <time>2026-08-21T15:41:38+00:00</time>
      </trkpt>
      <trkpt lat="44.13424" lon="3.10811">
        <ele>520</ele>
        <time>2026-08-21T15:41:41+00:00</time>
      </trkpt>
      <trkpt lat="44.13414" lon="3.1081">
        <ele>518</ele>
        <time>2026-08-21T15:41:44+00:00</time>
      </trkpt>
      <trkpt lat="44.13408" lon="3.10809">
        <ele>517</ele>
        <time>2026-08-21T15:41:47+00:00</time>
      </trkpt>
      <trkpt lat="44.13403" lon="3.10804">
        <ele>517</ele>
        <time>2026-08-21T15:41:50+00:00</time>
      </trkpt>
      <trkpt lat="44.13385" lon="3.10817">
        <ele>519</ele>
        <time>2026-08-21T15:41:53+00:00</time>
      </trkpt>
      <trkpt lat="44.13369" lon="3.1082">
        <ele>523</ele>
        <time>2026-08-21T15:41:56+00:00</time>
      </trkpt>
      <trkpt lat="44.13353" lon="3.10816">
        <ele>526</ele>
        <time>2026-08-21T15:41:59+00:00</time>
      </trkpt>
      <trkpt lat="44.1334" lon="3.10812">
        <ele>528</ele>
        <time>2026-08-21T15:42:02+00:00</time>
      </trkpt>
      <trkpt lat="44.13328" lon="3.10811">
        <ele>526</ele>
        <time>2026-08-21T15:42:05+00:00</time>
      </trkpt>
      <trkpt lat="44.13315" lon="3.10805">
        <ele>527</ele>
        <time>2026-08-21T15:42:08+00:00</time>
      </trkpt>
      <trkpt lat="44.13304" lon="3.10797">
        <ele>526</ele>
        <time>2026-08-21T15:42:11+00:00</time>
      </trkpt>
      <trkpt lat="44.13295" lon="3.1079">
        <ele>525</ele>
        <time>2026-08-21T15:42:14+00:00</time>
      </trkpt>
      <trkpt lat="44.13281" lon="3.10778">
        <ele>527</ele>
        <time>2026-08-21T15:42:17+00:00</time>
      </trkpt>
      <trkpt lat="44.13264" lon="3.10763">
        <ele>528</ele>
        <time>2026-08-21T15:42:20+00:00</time>
      </trkpt>
      <trkpt lat="44.13251" lon="3.1075">
        <ele>529</ele>
        <time>2026-08-21T15:42:23+00:00</time>
      </trkpt>
      <trkpt lat="44.13244" lon="3.10735">
        <ele>531</ele>
        <time>2026-08-21T15:42:26+00:00</time>
      </trkpt>
      <trkpt lat="44.13235" lon="3.10714">
        <ele>534</ele>
        <time>2026-08-21T15:42:29+00:00</time>
      </trkpt>
      <trkpt lat="44.13224" lon="3.1069">
        <ele>538</ele>
        <time>2026-08-21T15:42:32+00:00</time>
      </trkpt>
      <trkpt lat="44.13214" lon="3.10672">
        <ele>539</ele>
        <time>2026-08-21T15:42:35+00:00</time>
      </trkpt>
      <trkpt lat="44.13202" lon="3.10661">
        <ele>540</ele>
        <time>2026-08-21T15:42:38+00:00</time>
      </trkpt>
      <trkpt lat="44.13192" lon="3.10654">
        <ele>543</ele>
        <time>2026-08-21T15:42:41+00:00</time>
      </trkpt>
      <trkpt lat="44.13163" lon="3.10679">
        <ele>545</ele>
        <time>2026-08-21T15:42:44+00:00</time>
      </trkpt>
      <trkpt lat="44.13135" lon="3.10704">
        <ele>547</ele>
        <time>2026-08-21T15:42:47+00:00</time>
      </trkpt>
      <trkpt lat="44.13106" lon="3.10729">
        <ele>547</ele>
        <time>2026-08-21T15:42:50+00:00</time>
      </trkpt>
      <trkpt lat="44.13075" lon="3.10757">
        <ele>547</ele>
        <time>2026-08-21T15:42:53+00:00</time>
      </trkpt>
      <trkpt lat="44.13079" lon="3.10787">
        <ele>546</ele>
        <time>2026-08-21T15:42:56+00:00</time>
      </trkpt>
      <trkpt lat="44.13086" lon="3.10819">
        <ele>547</ele>
        <time>2026-08-21T15:42:59+00:00</time>
      </trkpt>
      <trkpt lat="44.13093" lon="3.10852">
        <ele>549</ele>
        <time>2026-08-21T15:43:02+00:00</time>
      </trkpt>
      <trkpt lat="44.13093" lon="3.10876">
        <ele>551</ele>
        <time>2026-08-21T15:43:05+00:00</time>
      </trkpt>
      <trkpt lat="44.13081" lon="3.10913">
        <ele>549</ele>
        <time>2026-08-21T15:43:08+00:00</time>
      </trkpt>
      <trkpt lat="44.13071" lon="3.10939">
        <ele>549</ele>
        <time>2026-08-21T15:43:11+00:00</time>
      </trkpt>
      <trkpt lat="44.13069" lon="3.10974">
        <ele>551</ele>
        <time>2026-08-21T15:43:14+00:00</time>
      </trkpt>
      <trkpt lat="44.13068" lon="3.10998">
        <ele>550</ele>
        <time>2026-08-21T15:43:17+00:00</time>
      </trkpt>
      <trkpt lat="44.13069" lon="3.11014">
        <ele>553</ele>
        <time>2026-08-21T15:43:20+00:00</time>
      </trkpt>
      <trkpt lat="44.13068" lon="3.11021">
        <ele>554</ele>
        <time>2026-08-21T15:43:23+00:00</time>
      </trkpt>
      <trkpt lat="44.13064" lon="3.11024">
        <ele>554</ele>
        <time>2026-08-21T15:43:26+00:00</time>
      </trkpt>
      <trkpt lat="44.13054" lon="3.11037">
        <ele>550</ele>
        <time>2026-08-21T15:43:29+00:00</time>
      </trkpt>
      <trkpt lat="44.13049" lon="3.1102">
        <ele>552</ele>
        <time>2026-08-21T15:43:32+00:00</time>
      </trkpt>
      <trkpt lat="44.13045" lon="3.10995">
        <ele>548</ele>
        <time>2026-08-21T15:43:35+00:00</time>
      </trkpt>
      <trkpt lat="44.13044" lon="3.10972">
        <ele>545</ele>
        <time>2026-08-21T15:43:38+00:00</time>
      </trkpt>
      <trkpt lat="44.13041" lon="3.10935">
        <ele>537</ele>
        <time>2026-08-21T15:43:41+00:00</time>
      </trkpt>
      <trkpt lat="44.13034" lon="3.10907">
        <ele>532</ele>
        <time>2026-08-21T15:43:44+00:00</time>
      </trkpt>
      <trkpt lat="44.13021" lon="3.10871">
        <ele>526</ele>
        <time>2026-08-21T15:43:47+00:00</time>
      </trkpt>
      <trkpt lat="44.13007" lon="3.10853">
        <ele>521</ele>
        <time>2026-08-21T15:43:50+00:00</time>
      </trkpt>
      <trkpt lat="44.12998" lon="3.10826">
        <ele>516</ele>
        <time>2026-08-21T15:43:53+00:00</time>
      </trkpt>
      <trkpt lat="44.12981" lon="3.10786">
        <ele>510</ele>
        <time>2026-08-21T15:43:56+00:00</time>
      </trkpt>
      <trkpt lat="44.12952" lon="3.10738">
        <ele>500</ele>
        <time>2026-08-21T15:43:59+00:00</time>
      </trkpt>
      <trkpt lat="44.12938" lon="3.10722">
        <ele>496</ele>
        <time>2026-08-21T15:44:02+00:00</time>
      </trkpt>
      <trkpt lat="44.12911" lon="3.10714">
        <ele>491</ele>
        <time>2026-08-21T15:44:05+00:00</time>
      </trkpt>
      <trkpt lat="44.12886" lon="3.10706">
        <ele>486</ele>
        <time>2026-08-21T15:44:08+00:00</time>
      </trkpt>
      <trkpt lat="44.12855" lon="3.10681">
        <ele>480</ele>
        <time>2026-08-21T15:44:11+00:00</time>
      </trkpt>
      <trkpt lat="44.12835" lon="3.10661">
        <ele>477</ele>
        <time>2026-08-21T15:44:14+00:00</time>
      </trkpt>
      <trkpt lat="44.12814" lon="3.10639">
        <ele>471</ele>
        <time>2026-08-21T15:44:17+00:00</time>
      </trkpt>
      <trkpt lat="44.12797" lon="3.10612">
        <ele>468</ele>
        <time>2026-08-21T15:44:20+00:00</time>
      </trkpt>
      <trkpt lat="44.12789" lon="3.10588">
        <ele>463</ele>
        <time>2026-08-21T15:44:23+00:00</time>
      </trkpt>
      <trkpt lat="44.1278" lon="3.10562">
        <ele>461</ele>
        <time>2026-08-21T15:44:26+00:00</time>
      </trkpt>
      <trkpt lat="44.1277" lon="3.10535">
        <ele>454</ele>
        <time>2026-08-21T15:44:29+00:00</time>
      </trkpt>
      <trkpt lat="44.12764" lon="3.1052">
        <ele>450</ele>
        <time>2026-08-21T15:44:32+00:00</time>
      </trkpt>
      <trkpt lat="44.12758" lon="3.10508">
        <ele>448</ele>
        <time>2026-08-21T15:44:35+00:00</time>
      </trkpt>
      <trkpt lat="44.12757" lon="3.10493">
        <ele>446</ele>
        <time>2026-08-21T15:44:38+00:00</time>
      </trkpt>
      <trkpt lat="44.1276" lon="3.10484">
        <ele>445</ele>
        <time>2026-08-21T15:44:41+00:00</time>
      </trkpt>
      <trkpt lat="44.12759" lon="3.10474">
        <ele>444</ele>
        <time>2026-08-21T15:44:44+00:00</time>
      </trkpt>
      <trkpt lat="44.12753" lon="3.10458">
        <ele>440</ele>
        <time>2026-08-21T15:44:47+00:00</time>
      </trkpt>
      <trkpt lat="44.12745" lon="3.10439">
        <ele>442</ele>
        <time>2026-08-21T15:44:50+00:00</time>
      </trkpt>
      <trkpt lat="44.12746" lon="3.10425">
        <ele>442</ele>
        <time>2026-08-21T15:44:53+00:00</time>
      </trkpt>
      <trkpt lat="44.12746" lon="3.10397">
        <ele>436</ele>
        <time>2026-08-21T15:44:56+00:00</time>
      </trkpt>
      <trkpt lat="44.12736" lon="3.10372">
        <ele>435</ele>
        <time>2026-08-21T15:44:59+00:00</time>
      </trkpt>
      <trkpt lat="44.12728" lon="3.10358">
        <ele>431</ele>
        <time>2026-08-21T15:45:02+00:00</time>
      </trkpt>
      <trkpt lat="44.12714" lon="3.10345">
        <ele>432</ele>
        <time>2026-08-21T15:45:05+00:00</time>
      </trkpt>
      <trkpt lat="44.12708" lon="3.10327">
        <ele>427</ele>
        <time>2026-08-21T15:45:08+00:00</time>
      </trkpt>
      <trkpt lat="44.12684" lon="3.10328">
        <ele>427</ele>
        <time>2026-08-21T15:45:11+00:00</time>
      </trkpt>
      <trkpt lat="44.12644" lon="3.10329">
        <ele>427</ele>
        <time>2026-08-21T15:45:14+00:00</time>
      </trkpt>
      <trkpt lat="44.1263" lon="3.10329">
        <ele>429</ele>
        <time>2026-08-21T15:45:17+00:00</time>
      </trkpt>
      <trkpt lat="44.12616" lon="3.10328">
        <ele>428</ele>
        <time>2026-08-21T15:45:20+00:00</time>
      </trkpt>
      <trkpt lat="44.12598" lon="3.10333">
        <ele>431</ele>
        <time>2026-08-21T15:45:23+00:00</time>
      </trkpt>
      <trkpt lat="44.12581" lon="3.10333">
        <ele>427</ele>
        <time>2026-08-21T15:45:26+00:00</time>
      </trkpt>
      <trkpt lat="44.12568" lon="3.10335">
        <ele>430</ele>
        <time>2026-08-21T15:45:29+00:00</time>
      </trkpt>
      <trkpt lat="44.12547" lon="3.10339">
        <ele>427</ele>
        <time>2026-08-21T15:45:32+00:00</time>
      </trkpt>
      <trkpt lat="44.12518" lon="3.10352">
        <ele>428</ele>
        <time>2026-08-21T15:45:35+00:00</time>
      </trkpt>
      <trkpt lat="44.12505" lon="3.10358">
        <ele>427</ele>
        <time>2026-08-21T15:45:38+00:00</time>
      </trkpt>
      <trkpt lat="44.12485" lon="3.10361">
        <ele>429</ele>
        <time>2026-08-21T15:45:41+00:00</time>
      </trkpt>
      <trkpt lat="44.12453" lon="3.1034">
        <ele>429</ele>
        <time>2026-08-21T15:45:44+00:00</time>
      </trkpt>
      <trkpt lat="44.12427" lon="3.10335">
        <ele>440</ele>
        <time>2026-08-21T15:45:47+00:00</time>
      </trkpt>
      <trkpt lat="44.12407" lon="3.10324">
        <ele>450</ele>
        <time>2026-08-21T15:45:50+00:00</time>
      </trkpt>
      <trkpt lat="44.12391" lon="3.10314">
        <ele>451</ele>
        <time>2026-08-21T15:45:53+00:00</time>
      </trkpt>
      <trkpt lat="44.12385" lon="3.10287">
        <ele>458</ele>
        <time>2026-08-21T15:45:56+00:00</time>
      </trkpt>
      <trkpt lat="44.12391" lon="3.10269">
        <ele>459</ele>
        <time>2026-08-21T15:45:59+00:00</time>
      </trkpt>
      <trkpt lat="44.12391" lon="3.10252">
        <ele>461</ele>
        <time>2026-08-21T15:46:02+00:00</time>
      </trkpt>
      <trkpt lat="44.12383" lon="3.10235">
        <ele>467</ele>
        <time>2026-08-21T15:46:05+00:00</time>
      </trkpt>
      <trkpt lat="44.12362" lon="3.10222">
        <ele>471</ele>
        <time>2026-08-21T15:46:08+00:00</time>
      </trkpt>
      <trkpt lat="44.12342" lon="3.1021">
        <ele>474</ele>
        <time>2026-08-21T15:46:11+00:00</time>
      </trkpt>
      <trkpt lat="44.12319" lon="3.10195">
        <ele>481</ele>
        <time>2026-08-21T15:46:14+00:00</time>
      </trkpt>
      <trkpt lat="44.12313" lon="3.10186">
        <ele>478</ele>
        <time>2026-08-21T15:46:17+00:00</time>
      </trkpt>
      <trkpt lat="44.12302" lon="3.10189">
        <ele>481</ele>
        <time>2026-08-21T15:46:20+00:00</time>
      </trkpt>
      <trkpt lat="44.12289" lon="3.10184">
        <ele>483</ele>
        <time>2026-08-21T15:46:23+00:00</time>
      </trkpt>
      <trkpt lat="44.12268" lon="3.10166">
        <ele>486</ele>
        <time>2026-08-21T15:46:26+00:00</time>
      </trkpt>
      <trkpt lat="44.12241" lon="3.10151">
        <ele>489</ele>
        <time>2026-08-21T15:46:29+00:00</time>
      </trkpt>
      <trkpt lat="44.1222" lon="3.10139">
        <ele>494</ele>
        <time>2026-08-21T15:46:32+00:00</time>
      </trkpt>
      <trkpt lat="44.12201" lon="3.10127">
        <ele>496</ele>
        <time>2026-08-21T15:46:35+00:00</time>
      </trkpt>
      <trkpt lat="44.12189" lon="3.10114">
        <ele>500</ele>
        <time>2026-08-21T15:46:38+00:00</time>
      </trkpt>
      <trkpt lat="44.12179" lon="3.10107">
        <ele>501</ele>
        <time>2026-08-21T15:46:41+00:00</time>
      </trkpt>
      <trkpt lat="44.12162" lon="3.10104">
        <ele>502</ele>
        <time>2026-08-21T15:46:44+00:00</time>
      </trkpt>
      <trkpt lat="44.12147" lon="3.10093">
        <ele>505</ele>
        <time>2026-08-21T15:46:47+00:00</time>
      </trkpt>
      <trkpt lat="44.12136" lon="3.10085">
        <ele>507</ele>
        <time>2026-08-21T15:46:50+00:00</time>
      </trkpt>
      <trkpt lat="44.12121" lon="3.10079">
        <ele>508</ele>
        <time>2026-08-21T15:46:53+00:00</time>
      </trkpt>
      <trkpt lat="44.12112" lon="3.10064">
        <ele>509</ele>
        <time>2026-08-21T15:46:56+00:00</time>
      </trkpt>
      <trkpt lat="44.12107" lon="3.10057">
        <ele>510</ele>
        <time>2026-08-21T15:46:59+00:00</time>
      </trkpt>
      <trkpt lat="44.12102" lon="3.1005">
        <ele>510</ele>
        <time>2026-08-21T15:47:02+00:00</time>
      </trkpt>
      <trkpt lat="44.12097" lon="3.10045">
        <ele>511</ele>
        <time>2026-08-21T15:47:05+00:00</time>
      </trkpt>
      <trkpt lat="44.12091" lon="3.10036">
        <ele>511</ele>
        <time>2026-08-21T15:47:08+00:00</time>
      </trkpt>
      <trkpt lat="44.12068" lon="3.10007">
        <ele>512</ele>
        <time>2026-08-21T15:47:11+00:00</time>
      </trkpt>
      <trkpt lat="44.12049" lon="3.09988">
        <ele>512</ele>
        <time>2026-08-21T15:47:14+00:00</time>
      </trkpt>
      <trkpt lat="44.12036" lon="3.09977">
        <ele>511</ele>
        <time>2026-08-21T15:47:17+00:00</time>
      </trkpt>
      <trkpt lat="44.12022" lon="3.09966">
        <ele>512</ele>
        <time>2026-08-21T15:47:20+00:00</time>
      </trkpt>
      <trkpt lat="44.12016" lon="3.09961">
        <ele>512</ele>
        <time>2026-08-21T15:47:23+00:00</time>
      </trkpt>
      <trkpt lat="44.11994" lon="3.09949">
        <ele>512</ele>
        <time>2026-08-21T15:47:26+00:00</time>
      </trkpt>
      <trkpt lat="44.11988" lon="3.09939">
        <ele>510</ele>
        <time>2026-08-21T15:47:29+00:00</time>
      </trkpt>
      <trkpt lat="44.11977" lon="3.09928">
        <ele>511</ele>
        <time>2026-08-21T15:47:32+00:00</time>
      </trkpt>
      <trkpt lat="44.11956" lon="3.09912">
        <ele>511</ele>
        <time>2026-08-21T15:47:35+00:00</time>
      </trkpt>
      <trkpt lat="44.11946" lon="3.09903">
        <ele>511</ele>
        <time>2026-08-21T15:47:38+00:00</time>
      </trkpt>
      <trkpt lat="44.11934" lon="3.09895">
        <ele>510</ele>
        <time>2026-08-21T15:47:41+00:00</time>
      </trkpt>
      <trkpt lat="44.11924" lon="3.09879">
        <ele>510</ele>
        <time>2026-08-21T15:47:44+00:00</time>
      </trkpt>
      <trkpt lat="44.11915" lon="3.09868">
        <ele>509</ele>
        <time>2026-08-21T15:47:47+00:00</time>
      </trkpt>
      <trkpt lat="44.11905" lon="3.09858">
        <ele>508</ele>
        <time>2026-08-21T15:47:50+00:00</time>
      </trkpt>
      <trkpt lat="44.11895" lon="3.09833">
        <ele>506</ele>
        <time>2026-08-21T15:47:53+00:00</time>
      </trkpt>
      <trkpt lat="44.11885" lon="3.09813">
        <ele>505</ele>
        <time>2026-08-21T15:47:56+00:00</time>
      </trkpt>
      <trkpt lat="44.11874" lon="3.09792">
        <ele>504</ele>
        <time>2026-08-21T15:47:59+00:00</time>
      </trkpt>
      <trkpt lat="44.11864" lon="3.09775">
        <ele>503</ele>
        <time>2026-08-21T15:48:02+00:00</time>
      </trkpt>
      <trkpt lat="44.11851" lon="3.09758">
        <ele>505</ele>
        <time>2026-08-21T15:48:05+00:00</time>
      </trkpt>
      <trkpt lat="44.1184" lon="3.09741">
        <ele>505</ele>
        <time>2026-08-21T15:48:08+00:00</time>
      </trkpt>
      <trkpt lat="44.11828" lon="3.09722">
        <ele>505</ele>
        <time>2026-08-21T15:48:11+00:00</time>
      </trkpt>
      <trkpt lat="44.11822" lon="3.09691">
        <ele>505</ele>
        <time>2026-08-21T15:48:14+00:00</time>
      </trkpt>
      <trkpt lat="44.11814" lon="3.09678">
        <ele>505</ele>
        <time>2026-08-21T15:48:17+00:00</time>
      </trkpt>
      <trkpt lat="44.118" lon="3.09661">
        <ele>509</ele>
        <time>2026-08-21T15:48:20+00:00</time>
      </trkpt>
      <trkpt lat="44.11786" lon="3.09641">
        <ele>509</ele>
        <time>2026-08-21T15:48:23+00:00</time>
      </trkpt>
      <trkpt lat="44.11775" lon="3.09614">
        <ele>509</ele>
        <time>2026-08-21T15:48:26+00:00</time>
      </trkpt>
      <trkpt lat="44.11754" lon="3.0959">
        <ele>509</ele>
        <time>2026-08-21T15:48:29+00:00</time>
      </trkpt>
      <trkpt lat="44.11743" lon="3.09574">
        <ele>508</ele>
        <time>2026-08-21T15:48:32+00:00</time>
      </trkpt>
      <trkpt lat="44.11726" lon="3.09559">
        <ele>508</ele>
        <time>2026-08-21T15:48:35+00:00</time>
      </trkpt>
      <trkpt lat="44.11713" lon="3.09542">
        <ele>508</ele>
        <time>2026-08-21T15:48:38+00:00</time>
      </trkpt>
      <trkpt lat="44.11696" lon="3.09519">
        <ele>502</ele>
        <time>2026-08-21T15:48:41+00:00</time>
      </trkpt>
      <trkpt lat="44.11682" lon="3.09495">
        <ele>499</ele>
        <time>2026-08-21T15:48:44+00:00</time>
      </trkpt>
      <trkpt lat="44.1166" lon="3.0946">
        <ele>494</ele>
        <time>2026-08-21T15:48:47+00:00</time>
      </trkpt>
      <trkpt lat="44.11649" lon="3.09443">
        <ele>491</ele>
        <time>2026-08-21T15:48:50+00:00</time>
      </trkpt>
      <trkpt lat="44.11641" lon="3.0941">
        <ele>480</ele>
        <time>2026-08-21T15:48:53+00:00</time>
      </trkpt>
      <trkpt lat="44.11633" lon="3.09386">
        <ele>476</ele>
        <time>2026-08-21T15:48:56+00:00</time>
      </trkpt>
      <trkpt lat="44.11628" lon="3.09365">
        <ele>473</ele>
        <time>2026-08-21T15:48:59+00:00</time>
      </trkpt>
      <trkpt lat="44.11626" lon="3.09351">
        <ele>470</ele>
        <time>2026-08-21T15:49:02+00:00</time>
      </trkpt>
      <trkpt lat="44.11624" lon="3.09336">
        <ele>466</ele>
        <time>2026-08-21T15:49:05+00:00</time>
      </trkpt>
      <trkpt lat="44.11621" lon="3.09325">
        <ele>463</ele>
        <time>2026-08-21T15:49:08+00:00</time>
      </trkpt>
      <trkpt lat="44.11626" lon="3.09323">
        <ele>463</ele>
        <time>2026-08-21T15:49:11+00:00</time>
      </trkpt>
      <trkpt lat="44.11629" lon="3.09319">
        <ele>462</ele>
        <time>2026-08-21T15:49:14+00:00</time>
      </trkpt>
      <trkpt lat="44.1163" lon="3.09314">
        <ele>462</ele>
        <time>2026-08-21T15:49:17+00:00</time>
      </trkpt>
      <trkpt lat="44.11628" lon="3.09303">
        <ele>460</ele>
        <time>2026-08-21T15:49:20+00:00</time>
      </trkpt>
      <trkpt lat="44.11622" lon="3.09288">
        <ele>458</ele>
        <time>2026-08-21T15:49:23+00:00</time>
      </trkpt>
      <trkpt lat="44.11617" lon="3.09277">
        <ele>457</ele>
        <time>2026-08-21T15:49:26+00:00</time>
      </trkpt>
      <trkpt lat="44.11611" lon="3.09269">
        <ele>456</ele>
        <time>2026-08-21T15:49:29+00:00</time>
      </trkpt>
      <trkpt lat="44.11608" lon="3.09263">
        <ele>456</ele>
        <time>2026-08-21T15:49:32+00:00</time>
      </trkpt>
      <trkpt lat="44.11602" lon="3.09255">
        <ele>455</ele>
        <time>2026-08-21T15:49:35+00:00</time>
      </trkpt>
      <trkpt lat="44.11587" lon="3.09244">
        <ele>453</ele>
        <time>2026-08-21T15:49:38+00:00</time>
      </trkpt>
      <trkpt lat="44.11577" lon="3.09231">
        <ele>451</ele>
        <time>2026-08-21T15:49:41+00:00</time>
      </trkpt>
      <trkpt lat="44.11569" lon="3.0922">
        <ele>448</ele>
        <time>2026-08-21T15:49:44+00:00</time>
      </trkpt>
      <trkpt lat="44.11563" lon="3.09217">
        <ele>448</ele>
        <time>2026-08-21T15:49:47+00:00</time>
      </trkpt>
      <trkpt lat="44.11554" lon="3.09215">
        <ele>447</ele>
        <time>2026-08-21T15:49:50+00:00</time>
      </trkpt>
      <trkpt lat="44.11548" lon="3.09213">
        <ele>446</ele>
        <time>2026-08-21T15:49:53+00:00</time>
      </trkpt>
      <trkpt lat="44.11545" lon="3.0921">
        <ele>444</ele>
        <time>2026-08-21T15:49:56+00:00</time>
      </trkpt>
      <trkpt lat="44.11543" lon="3.09206">
        <ele>444</ele>
        <time>2026-08-21T15:49:59+00:00</time>
      </trkpt>
      <trkpt lat="44.11543" lon="3.09197">
        <ele>442</ele>
        <time>2026-08-21T15:50:02+00:00</time>
      </trkpt>
      <trkpt lat="44.11542" lon="3.09189">
        <ele>440</ele>
        <time>2026-08-21T15:50:05+00:00</time>
      </trkpt>
      <trkpt lat="44.11525" lon="3.09179">
        <ele>437</ele>
        <time>2026-08-21T15:50:08+00:00</time>
      </trkpt>
      <trkpt lat="44.11514" lon="3.09167">
        <ele>435</ele>
        <time>2026-08-21T15:50:11+00:00</time>
      </trkpt>
      <trkpt lat="44.11504" lon="3.09157">
        <ele>432</ele>
        <time>2026-08-21T15:50:14+00:00</time>
      </trkpt>
      <trkpt lat="44.11497" lon="3.09149">
        <ele>431</ele>
        <time>2026-08-21T15:50:17+00:00</time>
      </trkpt>
      <trkpt lat="44.11486" lon="3.09133">
        <ele>432</ele>
        <time>2026-08-21T15:50:20+00:00</time>
      </trkpt>
      <trkpt lat="44.11477" lon="3.09118">
        <ele>429</ele>
        <time>2026-08-21T15:50:23+00:00</time>
      </trkpt>
      <trkpt lat="44.11467" lon="3.09104">
        <ele>430</ele>
        <time>2026-08-21T15:50:26+00:00</time>
      </trkpt>
      <trkpt lat="44.11452" lon="3.09082">
        <ele>421</ele>
        <time>2026-08-21T15:50:29+00:00</time>
      </trkpt>
      <trkpt lat="44.11442" lon="3.09067">
        <ele>415</ele>
        <time>2026-08-21T15:50:32+00:00</time>
      </trkpt>
      <trkpt lat="44.11432" lon="3.09049">
        <ele>412</ele>
        <time>2026-08-21T15:50:35+00:00</time>
      </trkpt>
      <trkpt lat="44.11428" lon="3.09041">
        <ele>413</ele>
        <time>2026-08-21T15:50:38+00:00</time>
      </trkpt>
      <trkpt lat="44.11424" lon="3.09032">
        <ele>412</ele>
        <time>2026-08-21T15:50:41+00:00</time>
      </trkpt>
      <trkpt lat="44.11418" lon="3.0902">
        <ele>411</ele>
        <time>2026-08-21T15:50:44+00:00</time>
      </trkpt>
      <trkpt lat="44.11417" lon="3.09015">
        <ele>409</ele>
        <time>2026-08-21T15:50:47+00:00</time>
      </trkpt>
      <trkpt lat="44.11418" lon="3.09011">
        <ele>409</ele>
        <time>2026-08-21T15:50:50+00:00</time>
      </trkpt>
      <trkpt lat="44.11415" lon="3.09006">
        <ele>408</ele>
        <time>2026-08-21T15:50:53+00:00</time>
      </trkpt>
      <trkpt lat="44.11411" lon="3.08999">
        <ele>403</ele>
        <time>2026-08-21T15:50:56+00:00</time>
      </trkpt>
      <trkpt lat="44.11407" lon="3.08991">
        <ele>407</ele>
        <time>2026-08-21T15:50:59+00:00</time>
      </trkpt>
      <trkpt lat="44.11402" lon="3.08987">
        <ele>404</ele>
        <time>2026-08-21T15:51:02+00:00</time>
      </trkpt>
      <trkpt lat="44.11398" lon="3.08971">
        <ele>404</ele>
        <time>2026-08-21T15:51:05+00:00</time>
      </trkpt>
      <trkpt lat="44.11396" lon="3.0896">
        <ele>397</ele>
        <time>2026-08-21T15:51:08+00:00</time>
      </trkpt>
      <trkpt lat="44.11406" lon="3.08952">
        <ele>396</ele>
        <time>2026-08-21T15:51:11+00:00</time>
      </trkpt>
      <trkpt lat="44.11411" lon="3.08943">
        <ele>394</ele>
        <time>2026-08-21T15:51:14+00:00</time>
      </trkpt>
      <trkpt lat="44.11417" lon="3.08934">
        <ele>391</ele>
        <time>2026-08-21T15:51:17+00:00</time>
      </trkpt>
      <trkpt lat="44.11421" lon="3.08919">
        <ele>386</ele>
        <time>2026-08-21T15:51:20+00:00</time>
      </trkpt>
      <trkpt lat="44.11431" lon="3.08912">
        <ele>385</ele>
        <time>2026-08-21T15:51:23+00:00</time>
      </trkpt>
      <trkpt lat="44.11448" lon="3.08915">
        <ele>384</ele>
        <time>2026-08-21T15:51:26+00:00</time>
      </trkpt>
      <trkpt lat="44.11467" lon="3.0892">
        <ele>387</ele>
        <time>2026-08-21T15:51:29+00:00</time>
      </trkpt>
      <trkpt lat="44.11471" lon="3.08927">
        <ele>386</ele>
        <time>2026-08-21T15:51:32+00:00</time>
      </trkpt>
      <trkpt lat="44.11475" lon="3.08938">
        <ele>387</ele>
        <time>2026-08-21T15:51:35+00:00</time>
      </trkpt>
      <trkpt lat="44.11472" lon="3.08947">
        <ele>390</ele>
        <time>2026-08-21T15:51:38+00:00</time>
      </trkpt>
      <trkpt lat="44.11463" lon="3.08953">
        <ele>393</ele>
        <time>2026-08-21T15:51:41+00:00</time>
      </trkpt>
      <trkpt lat="44.11447" lon="3.08951">
        <ele>393</ele>
        <time>2026-08-21T15:51:44+00:00</time>
      </trkpt>
      <trkpt lat="44.11426" lon="3.08952">
        <ele>395</ele>
        <time>2026-08-21T15:51:47+00:00</time>
      </trkpt>
    </trkseg>
  </trk>
</gpx>
